"ROI FAMILY ID","ROI ID","CITY","STATE","ZIPCODE","SOLICIT NO MAIL","NO EMAIL","MD GROUP","DEV TFP","MLS","REG COUNCIL","NAT COUNCIL","VET COUNCIL","CF GROUP","BOARD OR EMERITUS","SUPERFUND","SUPERFUND PLANNEDGIFT","NP ROLE STAFF"
"6510","6510","White Rock","NM","87547-3638","N","N","N","N","Y","N","N","N","N","N","Superfund Planned Giving Prospect FY24","Superfund Planned Giving Prospect FY24","N"
"7476","7476","Lakewood Rch","FL","34202-5605","N","N","Y","N","N","N","N","N","N","N","Superfund Major Gift Prospect FY24",,"N"
"33084","33084","West Hartford","CT","06107-2710","N","N","N","N","N","N","N","N","N","N","Superfund Planned Giving Prospect FY24","Superfund Planned Giving Prospect FY24","N"
"40832","40832","Greenwich","CT","06831-3322","N","N","Y","N","N","N","N","N","N","N","Superfund Planned Giving Prospect FY24","Superfund Planned Giving Prospect FY24","N"
"92106","92106","Palo Alto","CA","94303-4644","N","N","N","N","N","N","N","N","N","N","Superfund Planned Giving Prospect FY24","Superfund Planned Giving Prospect FY24","N"
"127209","127209","Hummelstown","PA","17036-9536","N","N","N","N","Y","N","N","N","N","N",,,"N"
"158915","158915","Bethesda","MD","20814-1731","N","N","Y","N","Y","Y","Y","N","N","N","Superfund Planned Giving Prospect FY24","Superfund Planned Giving Prospect FY24","N"
"195040","195040","Salisbury","NC","28144-2860","N","N","Y","N","N","N","N","N","N","N","Superfund Planned Giving Prospect FY24","Superfund Planned Giving Prospect FY24","N"
"212894","212894","Jacksonville","FL","32206-5022","N","N","Y","N","N","Y","N","N","N","N","Superfund Planned Giving Prospect FY24","Superfund Planned Giving Prospect FY24","N"
"232553","232553","Asheville","NC","28801-2343","N","N","N","N","Y","N","N","N","N","N","Superfund Planned Giving Prospect FY24","Superfund Planned Giving Prospect FY24","N"
"257105","257105","Columbus","OH","43221-3725","N","N","Y","N","Y","N","N","N","N","N","Superfund Planned Giving Prospect FY24","Superfund Planned Giving Prospect FY24","N"
"332692","332692","Saint Paul","MN","55112-3225","N","N","N","Y","N","N","N","N","N","N","Superfund Planned Giving Prospect FY24","Superfund Planned Giving Prospect FY24","N"
"333351","333351","Saint Paul","MN","55119-5521","N","N","Y","N","Y","N","N","N","N","N","Superfund Planned Giving Prospect FY24","Superfund Planned Giving Prospect FY24","N"
"335752","335752","Minneapolis","MN","55419-5511","N","N","Y","N","Y","Y","N","N","N","Y","Superfund Planned Giving Prospect FY24","Superfund Planned Giving Prospect FY24","N"
"336743","336743","Minneapolis","MN","55419-1636","N","N","N","N","Y","N","N","N","N","N","Superfund Planned Giving Prospect FY24","Superfund Planned Giving Prospect FY24","N"
"363721","363721","Lisle","IL","60532-3105","N","N","N","Y","Y","N","N","N","N","N","Superfund Planned Giving Prospect FY24","Superfund Planned Giving Prospect FY24","N"
"415109","415109","Shreveport","LA","71106-1220","N","N","N","N","N","N","N","N","N","N","Superfund Planned Giving Prospect FY24","Superfund Planned Giving Prospect FY24","N"
"479600","479600","Salt Lake Cty","UT","84108","N","N","Y","N","Y","N","N","N","N","Y","Superfund Major Gift Prospect FY24",,"N"
"489518","489518","Phoenix","AZ","85037-5605","N","N","N","Y","N","N","N","N","N","N","Superfund Planned Giving Prospect FY24","Superfund Planned Giving Prospect FY24","N"
"514273","514273","Los Angeles","CA","90071-3460","N","N","Y","N","N","N","N","N","N","N","Superfund Planned Giving Prospect FY24","Superfund Planned Giving Prospect FY24","N"
"514778","514778","Pasadena","CA","91106-3813","N","N","N","N","Y","N","N","N","N","N","Superfund Planned Giving Prospect FY24","Superfund Planned Giving Prospect FY24","N"
"530832","530832","Chicago","IL","60614-4009","N","N","N","N","N","N","N","N","N","N","Superfund Planned Giving Prospect FY24","Superfund Planned Giving Prospect FY24","N"
"542803","542803","El Cajon","CA","92020-8256","N","N","N","N","Y","N","N","N","N","N","Superfund Planned Giving Prospect FY24","Superfund Planned Giving Prospect FY24","N"
"553776","553776","Newport Beach","CA","92663-4931","N","N","N","N","N","N","N","N","N","N","Superfund Planned Giving Prospect FY24","Superfund Planned Giving Prospect FY24","N"
"567388","567388","Mountain View","CA","94040-2938","N","N","N","N","N","N","N","N","N","N","Superfund Planned Giving Prospect FY24","Superfund Planned Giving Prospect FY24","N"
"567503","567503","Prescott","AZ","86301-5782","N","N","N","N","Y","N","N","N","N","N","Superfund Planned Giving Prospect FY24","Superfund Planned Giving Prospect FY24","N"
"573162","100008780","San Francisco","CA","94127-1318","N","N","N","N","N","N","N","N","N","N","Superfund Planned Giving Prospect FY24","Superfund Planned Giving Prospect FY24","N"
"574202","574202","Palo Alto","CA","94301-3812","N","N","Y","N","N","Y","N","N","N","N","Superfund Planned Giving Prospect FY24","Superfund Planned Giving Prospect FY24","N"
"584441","584441","Ann Arbor","MI","48105-2570","N","N","Y","N","Y","N","N","N","N","N","Superfund Planned Giving Prospect FY24","Superfund Planned Giving Prospect FY24","N"
"585018","585018","Moraga","CA","94556-2362","N","N","Y","N","N","N","N","N","N","N","Superfund Planned Giving Prospect FY24","Superfund Planned Giving Prospect FY24","N"
"615757","615757","Seattle","WA","98116-2340","N","N","Y","N","N","N","N","N","N","N","Superfund Planned Giving Prospect FY24","Superfund Planned Giving Prospect FY24","N"
"636233","636233","Minneapolis","MN","55422-4243","N","N","Y","N","Y","Y","N","N","N","Y","Superfund Planned Giving Prospect FY24","Superfund Planned Giving Prospect FY24","N"
"674614","674614","Bozeman","MT","59715-9229","N","N","N","Y","Y","N","Y","N","N","N","Superfund Planned Giving Prospect FY24","Superfund Planned Giving Prospect FY24","N"
"701870","701870","Roxbury","CT","06783-1611","N","N","Y","N","N","N","N","N","N","N","Superfund Planned Giving Prospect FY24","Superfund Planned Giving Prospect FY24","N"
"817585","817585","Frankfort","IL","60423-8759","N","N","N","Y","Y","N","N","N","N","N","Superfund Planned Giving Prospect FY24","Superfund Planned Giving Prospect FY24","N"
"966432","966432","Farragut","TN","37934-7452","N","N","Y","N","N","N","N","N","N","N","Superfund Planned Giving Prospect FY24","Superfund Planned Giving Prospect FY24","N"
"988873","988873","River Hills","WI","53217-2062","N","N","Y","N","N","N","Y","N","N","N",,,"N"
"1000371","1000371","Lake Oswego","OR","97034-5742","N","N","N","N","N","N","N","N","N","N","Superfund Planned Giving Prospect FY24","Superfund Planned Giving Prospect FY24","N"
"1058049","1058049","Wayne","PA","19087-4421","N","N","Y","N","N","N","N","N","N","N","Superfund Planned Giving Prospect FY24","Superfund Planned Giving Prospect FY24","N"
"1064971","1064971","Rushland","PA","18956-0412","N","N","N","N","Y","N","N","N","N","N",,,"N"
"1076793","1076793","Pittsboro","NC","27312-5037","N","N","N","Y","Y","N","N","N","N","N","Superfund Planned Giving Prospect FY24","Superfund Planned Giving Prospect FY24","N"
"1078971","1078971","Stamford","CT","06904-1147","N","N","N","N","Y","N","N","N","N","N","Superfund Planned Giving Prospect FY24","Superfund Planned Giving Prospect FY24","N"
"1102516","1102516","Salem","OR","97304-4495","N","N","N","N","N","N","N","N","N","N","Superfund Planned Giving Prospect FY24","Superfund Planned Giving Prospect FY24","N"
"1124981","1124981","Barrington","IL","60011-0583","N","N","Y","N","N","N","N","N","N","N","Superfund Planned Giving Prospect FY24","Superfund Planned Giving Prospect FY24","N"
"1136779","1136779","Racine","WI","53402-3848","N","N","N","N","N","N","N","N","N","N","Superfund Planned Giving Prospect FY24","Superfund Planned Giving Prospect FY24","N"
"1169515","1169515","Muncie","IN","47304-3339","N","N","N","N","N","N","N","N","N","N","Superfund Planned Giving Prospect FY24","Superfund Planned Giving Prospect FY24","N"
"1178151","1178151","Sarasota","FL","34239-6321","N","N","N","N","N","N","N","N","N","N","Superfund Midlevel Annual Prospect FY24",,"N"
"1191469","1191469","Golden","CO","80403-1909","N","N","N","Y","Y","N","N","N","N","N","Superfund Planned Giving Prospect FY24","Superfund Planned Giving Prospect FY24","N"
"1225135","1225135","Concord","NC","28025-7986","N","N","N","N","N","N","N","N","N","N","Superfund Midlevel Annual Prospect FY24",,"N"
"1232602","1232602","Wilson","WY","83014-9680","N","N","N","N","Y","N","N","N","N","N",,,"N"
"1232990","1232990","Watchung","NJ","07069-6136","N","N","N","Y","N","N","N","N","N","N","Superfund Planned Giving Prospect FY24","Superfund Planned Giving Prospect FY24","N"
"1303783","1303783","Barrington","IL","60010-4708","N","N","N","N","N","N","N","N","N","N","Superfund Planned Giving Prospect FY24","Superfund Planned Giving Prospect FY24","N"
"1314889","1314889","Seattle","WA","98136-2626","N","N","N","Y","N","N","N","N","N","N","Superfund Planned Giving Prospect FY24","Superfund Planned Giving Prospect FY24","N"
"1333202","1333202","Lebanon","PA","17042-4140","N","N","Y","N","Y","N","N","N","N","N","Superfund Planned Giving Prospect FY24","Superfund Planned Giving Prospect FY24","N"
"1389444","1389444","Plymouth","MN","55446-4007","N","N","N","N","N","N","N","N","N","N","Superfund Planned Giving Prospect FY24","Superfund Planned Giving Prospect FY24","N"
"1390665","1390665","Salt Lake Cty","UT","84108-2044","N","N","N","N","Y","N","N","N","N","N","Superfund Planned Giving Prospect FY24","Superfund Planned Giving Prospect FY24","N"
"1799436","1799436","Runnells","IA","50237-2218","N","N","N","N","Y","N","N","N","N","N","Superfund Mid to Major Prospect FY24",,"N"
"1803816","1803816","Burlington","IA","52601-8203","N","N","N","N","Y","N","N","N","N","N",,,"N"
"1862036","1862036","Louisville","KY","40202-4226","N","N","Y","N","N","N","Y","N","N","N","Superfund Major Gift Prospect FY24",,"N"
"1863794","1863794","Lexington","MA","02421-4931","N","N","Y","N","N","N","N","N","N","N","Superfund Planned Giving Prospect FY24","Superfund Planned Giving Prospect FY24","N"
"1885409","1885409","Swampscott","MA","01907-2707","N","N","Y","N","Y","N","N","N","N","N","Superfund Planned Giving Prospect FY24","Superfund Planned Giving Prospect FY24","N"
"1925429","1925429","Canton","NC","28716-7938","N","N","Y","N","N","N","N","N","N","N","Superfund Planned Giving Prospect FY24","Superfund Planned Giving Prospect FY24","N"
"1956168","1956168","Hartville","OH","44632-9063","N","N","N","N","N","N","N","N","N","N","Superfund Planned Giving Prospect FY24","Superfund Planned Giving Prospect FY24","N"
"2226389","2226389","Evanston","IL","60201-1412","N","N","N","N","N","N","N","N","N","N","Superfund Planned Giving Prospect FY24","Superfund Planned Giving Prospect FY24","N"
"2357960","2357960","Saint Louis","MO","63116-3126","N","N","N","N","N","N","N","N","N","N","Superfund Midlevel Annual Prospect FY24",,"N"
"2422194","2422194","Austin","TX","78731-6028","N","N","N","N","Y","N","N","N","N","N",,,"N"
"2539930","2539930","Carmel Valley","CA","93924-1710","N","N","N","N","N","N","N","N","N","N","Superfund Planned Giving Prospect FY24","Superfund Planned Giving Prospect FY24","N"
"2587954","2587954","Silver Spring","MD","20904-5826","N","N","Y","N","N","N","N","N","N","N","Superfund Planned Giving Prospect FY24","Superfund Planned Giving Prospect FY24","N"
"2604783","2604783","Chapel Hill","NC","27514-9747","N","N","N","N","N","N","N","N","N","N","Superfund Planned Giving Prospect FY24","Superfund Planned Giving Prospect FY24","N"
"2631828","2631828","Santa Fe","NM","87505-5925","N","N","N","N","N","N","N","N","N","N","Superfund Planned Giving Prospect FY24","Superfund Planned Giving Prospect FY24","N"
"2733202","2733202","Saint Leonard","MD","20685-2577","N","N","N","Y","N","N","N","N","N","N","Superfund Planned Giving Prospect FY24","Superfund Planned Giving Prospect FY24","N"
"2837789","2837789","Woodstock","VT","05091-7415","N","N","Y","N","N","N","N","N","N","N","Superfund Planned Giving Prospect FY24","Superfund Planned Giving Prospect FY24","N"
"2872323","2872323","Doswell","VA","23047-2036","N","N","Y","N","N","N","N","N","N","N",,,"N"
"2914752","2914752","Charlottesvle","VA","22911-8687","N","N","Y","N","N","N","N","N","N","N","Superfund Planned Giving Prospect FY24","Superfund Planned Giving Prospect FY24","N"
"2955136","2955136","North East","PA","16428-3896","N","N","N","N","N","N","N","N","N","N","Superfund Mid to Major Prospect FY24",,"N"
"2988970","2988970","Golden","CO","80403-1315","N","N","N","N","Y","N","N","N","N","N","Superfund Planned Giving Prospect FY24","Superfund Planned Giving Prospect FY24","N"
"2995199","2995199","Madison","NJ","07940-2712","N","N","Y","N","N","Y","N","N","N","Y","Superfund Planned Giving Prospect FY24","Superfund Planned Giving Prospect FY24","N"
"3093259","3093259","Columbus","OH","43209-1417","N","N","Y","N","N","N","N","N","N","N","Superfund Planned Giving Prospect FY24","Superfund Planned Giving Prospect FY24","N"
"3096799","3096799","Houston","TX","77025-1923","N","N","N","Y","N","N","N","N","N","N","Superfund Planned Giving Prospect FY24","Superfund Planned Giving Prospect FY24","N"
"3114881","3114881","Wamego","KS","66547-8037","N","N","N","N","N","N","N","N","N","N","Superfund Planned Giving Prospect FY24","Superfund Planned Giving Prospect FY24","N"
"3145455","3145455","Minneapolis","MN","55423-4209","N","N","N","N","Y","N","N","N","N","N",,,"N"
"3193661","3193661","Beverly Hills","CA","90210-2730","N","N","Y","N","N","N","N","N","N","Y","Superfund Planned Giving Prospect FY24","Superfund Planned Giving Prospect FY24","N"
"3213824","3213824","Miami","FL","33131-3067","N","N","Y","N","N","N","N","N","N","Y","Superfund Planned Giving Prospect FY24","Superfund Planned Giving Prospect FY24","N"
"3311297","3311297","Madison","WI","53705-4735","N","N","N","N","N","N","N","N","N","N","Superfund Planned Giving Prospect FY24","Superfund Planned Giving Prospect FY24","N"
"3320140","3320140","New York","NY","10023-4250","N","N","Y","N","N","N","N","N","N","N","Superfund Planned Giving Prospect FY24","Superfund Planned Giving Prospect FY24","N"
"3349602","3349602","Clayton","DE","19938-3553","N","N","N","N","N","N","N","N","N","N","Superfund Planned Giving Prospect FY24","Superfund Planned Giving Prospect FY24","N"
"3363942","3363942","Georgetown","TN","37336-4007","N","N","Y","N","Y","Y","N","N","N","Y","Superfund Planned Giving Prospect FY24","Superfund Planned Giving Prospect FY24","N"
"3532314","3532314","Willow Street","PA","17584-0307","N","N","Y","N","N","N","N","N","N","N",,,"N"
"3535630","3535630","Williamsburg","VA","23188-2798","N","N","N","N","N","N","N","N","N","N","Superfund Planned Giving Prospect FY24","Superfund Planned Giving Prospect FY24","N"
"3607207","3607207","Corvallis","OR","97330-3024","N","N","N","N","N","N","N","N","N","N","Superfund Planned Giving Prospect FY24","Superfund Planned Giving Prospect FY24","N"
"3761673","3761673","Elburn","IL","60119-9450","N","N","N","N","N","N","N","N","N","N","Superfund Midlevel Annual Prospect FY24",,"N"
"4099172","4099172","Cincinnati","OH","45215-2069","N","N","N","N","N","N","N","N","N","N","Superfund Planned Giving Prospect FY24","Superfund Planned Giving Prospect FY24","N"
"4155206","4155206","University Place","WA","98467-2043","N","N","N","N","Y","N","N","N","N","N","Superfund Planned Giving Prospect FY24","Superfund Planned Giving Prospect FY24","N"
"4174249","4174249","Los Angeles","CA","90077-3423","N","N","Y","N","N","N","N","N","N","Y","Superfund Leadership Gift Prospect FY24",,"N"
"4330262","4330262","Austin","TX","78717-4842","N","N","N","N","N","N","N","N","N","N","Superfund Planned Giving Prospect FY24","Superfund Planned Giving Prospect FY24","N"
"4494464","4494464","Chicago","IL","60611-4255","N","N","Y","N","N","Y","N","N","N","N","Superfund Planned Giving Prospect FY24","Superfund Planned Giving Prospect FY24","N"
"4570123","4570123","Carmel","CA","93923-8674","N","N","Y","N","N","N","N","N","N","N","Superfund Planned Giving Prospect FY24","Superfund Planned Giving Prospect FY24","N"
"4602744","4602744","Denver","CO","80231-5739","N","N","Y","N","N","N","N","N","N","N","Superfund Planned Giving Prospect FY24","Superfund Planned Giving Prospect FY24","N"
"4614608","4614608","Henderson","NV","89002-8442","N","N","N","N","N","N","N","N","N","N","Superfund Mid to Major Prospect FY24",,"N"
"4619441","4619441","Maumelle","AR","72113-7026","N","N","Y","N","N","N","N","N","N","N","Superfund Planned Giving Prospect FY24","Superfund Planned Giving Prospect FY24","N"
"4624540","4624540","Hillsborough","CA","94010-6529","N","N","N","Y","N","N","N","N","N","N","Superfund Planned Giving Prospect FY24","Superfund Planned Giving Prospect FY24","N"
"4773016","4773016","Pittsburgh","PA","15237-1006","N","N","N","N","N","N","N","N","N","N","Superfund Planned Giving Prospect FY24","Superfund Planned Giving Prospect FY24","N"
"4904637","4904637","Croton Hdsn","NY","10520-3523","N","N","Y","N","N","Y","N","N","N","Y","Superfund Planned Giving Prospect FY24","Superfund Planned Giving Prospect FY24","N"
"5046123","5046123","Cincinnati","OH","45215-2619","N","N","Y","N","Y","N","N","N","N","N","Superfund Planned Giving Prospect FY24","Superfund Planned Giving Prospect FY24","N"
"5080726","5080726","Princeton","NJ","08540-2633","N","N","N","N","N","N","N","N","N","N","Superfund Planned Giving Prospect FY24","Superfund Planned Giving Prospect FY24","N"
"5180450","5180450","Torrance","CA","90503-7179","N","N","N","N","Y","N","N","N","N","N","Superfund Planned Giving Prospect FY24","Superfund Planned Giving Prospect FY24","N"
"5270921","5270921","Arlington","VA","22207-4104","N","N","N","N","Y","N","N","N","N","N","Superfund Planned Giving Prospect FY24","Superfund Planned Giving Prospect FY24","N"
"5379243","5379243","Long Prairie","MN","56347-4913","N","N","N","N","N","N","N","N","N","N","Superfund Planned Giving Prospect FY24","Superfund Planned Giving Prospect FY24","N"
"5385364","5385364","Decatur","GA","30033-4105","N","N","N","N","N","N","N","N","N","N","Superfund Planned Giving Prospect FY24","Superfund Planned Giving Prospect FY24","N"
"5527601","5527601","Downingtown","PA","19335-3560","N","N","N","N","N","N","N","N","N","N","Superfund Planned Giving Prospect FY24","Superfund Planned Giving Prospect FY24","N"
"5573985","5573985","Bridgewater","VA","22812-1300","N","N","N","N","Y","N","N","N","N","N",,,"N"
"5654157","5654157","Providence","RI","02906-5142","N","N","N","N","N","N","N","N","N","N","Superfund Planned Giving Prospect FY24","Superfund Planned Giving Prospect FY24","N"
"5794334","5794334","Gloversville","NY","12078-6917","N","N","N","Y","Y","N","N","N","N","N",,,"N"
"5803929","5803929","Miami","FL","33233-0667","N","N","Y","N","N","Y","Y","N","N","N","Superfund Planned Giving Prospect FY24","Superfund Planned Giving Prospect FY24","N"
"5866488","5866488","Minneapolis","MN","55405-3451","N","N","N","N","N","N","N","N","N","N","Superfund Planned Giving Prospect FY24","Superfund Planned Giving Prospect FY24","N"
"5888565","5888565","Centennial","CO","80112-1364","N","N","N","Y","N","N","N","N","N","N",,,"N"
"6211015","6211015","Montvale","NJ","07645-1547","N","N","Y","N","N","Y","N","N","N","N","Superfund Planned Giving Prospect FY24","Superfund Planned Giving Prospect FY24","N"
"6356711","6356711","Lakewood","CO","80228-2342","N","N","N","N","N","N","N","N","N","N","Superfund Planned Giving Prospect FY24","Superfund Planned Giving Prospect FY24","N"
"6384812","6384812","Lake Bluff","IL","60044-2816","N","N","Y","N","N","N","Y","N","N","N","Superfund Planned Giving Prospect FY24","Superfund Planned Giving Prospect FY24","N"
"6414502","6414502","Beavercreek","OH","45431-2682","N","N","N","N","Y","N","N","N","N","N","Superfund Planned Giving Prospect FY24","Superfund Planned Giving Prospect FY24","N"
"6486278","6486278","Brooklyn","NY","11205-5028","N","N","N","N","Y","N","N","N","N","N","Superfund Planned Giving Prospect FY24","Superfund Planned Giving Prospect FY24","N"
"6539522","6539522","Bethesda","MD","20814-3158","N","N","N","N","N","N","N","N","N","N","Superfund Planned Giving Prospect FY24","Superfund Planned Giving Prospect FY24","N"
"6569115","6569115","San Francisco","CA","94123-3814","N","N","N","N","N","N","N","N","N","N","Superfund Planned Giving Prospect FY24","Superfund Planned Giving Prospect FY24","N"
"6610893","6610893","Chicago","IL","60611-2587","N","N","N","Y","N","Y","N","N","N","N","Superfund Planned Giving Prospect FY24","Superfund Planned Giving Prospect FY24","N"
"6666804","6666804","Arlington","VA","22207-4443","N","N","N","N","Y","N","N","N","N","N",,,"N"
"6677066","6677066","Davis","IL","61019-9431","N","N","N","N","N","N","N","N","N","N","Superfund Midlevel Annual Prospect FY24",,"N"
"6820195","6820195","Damascus","MD","20872-2248","N","N","N","N","N","N","N","N","N","N","Superfund Planned Giving Prospect FY24","Superfund Planned Giving Prospect FY24","N"
"7067416","7067416","Charlotte","NC","28277-2408","N","N","Y","N","N","N","N","N","N","N","Superfund Planned Giving Prospect FY24","Superfund Planned Giving Prospect FY24","N"
"7137730","7137730","Arlington","TX","76012-5393","N","N","N","N","N","N","N","N","N","N","Superfund Planned Giving Prospect FY24","Superfund Planned Giving Prospect FY24","N"
"7201544","7201544","Chevy Chase","MD","20815-4108","N","N","N","N","N","N","N","N","N","N","Superfund Planned Giving Prospect FY24","Superfund Planned Giving Prospect FY24","N"
"7225212","7225212","Saint Paul","MN","55104-3308","N","N","N","N","Y","N","N","N","N","N",,,"N"
"7317142","7317142","Saint Paul","MN","55105-1427","N","N","N","N","N","N","N","N","N","N","Superfund Planned Giving Prospect FY24","Superfund Planned Giving Prospect FY24","N"
"7372071","7372071","East Lansing","MI","48823-6327","N","N","N","N","Y","N","N","N","N","N",,,"N"
"7477417","7477417","Rochester","MN","55902-4269","N","N","N","N","N","N","N","N","N","N","Superfund Planned Giving Prospect FY24","Superfund Planned Giving Prospect FY24","N"
"7569403","7569403","W Springfield","MA","01089-1122","N","N","N","N","Y","N","N","N","N","N","Superfund Planned Giving Prospect FY24","Superfund Planned Giving Prospect FY24","N"
"7682867","7682867","Greenwich","CT","06830-3828","N","N","N","N","N","N","N","N","N","N","Superfund Planned Giving Prospect FY24","Superfund Planned Giving Prospect FY24","N"
"7691066","7691066","Islamorada","FL","33036-1915","N","N","N","N","N","N","Y","N","N","N",,,"N"
"7791601","7791601","Burlington","WA","98233-1469","N","N","N","Y","N","N","N","N","N","N","Superfund Major Gift Prospect FY24",,"N"
"7793524","7793524","Tualatin","OR","97062-9354","N","N","N","N","N","N","N","N","N","N","Superfund Planned Giving Prospect FY24","Superfund Planned Giving Prospect FY24","N"
"7871437","7871437","Rancho Mirage","CA","92270-4087","N","N","N","N","Y","N","N","N","N","N",,,"N"
"7904576","7904576","Christiansbrg","VA","24073-4446","N","N","N","N","Y","N","N","N","N","N",,,"N"
"8132102","8132102","Philadelphia","PA","19106-3557","N","N","Y","N","Y","N","N","N","N","N","Superfund Planned Giving Prospect FY24","Superfund Planned Giving Prospect FY24","N"
"8236903","8236903","Pasadena","CA","91105-2422","N","N","N","N","Y","N","Y","N","N","N",,,"N"
"8557217","8557217","Decatur","GA","30033-2021","N","N","N","N","N","N","N","N","N","N","Superfund Midlevel Annual Prospect FY24",,"N"
"9003609","9003609","Ann Arbor","MI","48104-1826","N","N","N","Y","N","N","N","N","N","N","Superfund Planned Giving Prospect FY24","Superfund Planned Giving Prospect FY24","N"
"9017096","9017096","Anchorage","AK","99516-3352","N","N","Y","N","N","N","N","N","N","N","Superfund Planned Giving Prospect FY24","Superfund Planned Giving Prospect FY24","N"
"9097734","9097734","Bellevue","WA","98004-6232","N","N","N","N","N","N","N","N","N","N","Superfund Planned Giving Prospect FY24","Superfund Planned Giving Prospect FY24","N"
"9168352","9168352","Portland","ME","04102-3418","N","N","N","Y","N","N","N","N","N","N","Superfund Planned Giving Prospect FY24","Superfund Planned Giving Prospect FY24","N"
"9195207","9195207","Collingswood","NJ","08108-3701","N","N","N","N","N","N","N","N","N","N","Superfund Planned Giving Prospect FY24","Superfund Planned Giving Prospect FY24","N"
"9504788","9504788","Bridgewater","NJ","08807-3043","N","N","N","Y","N","N","N","N","N","N","Superfund Planned Giving Prospect FY24","Superfund Planned Giving Prospect FY24","N"
"9605536","9605536","Raleigh","NC","27616-5445","N","N","N","Y","N","N","N","N","N","N","Superfund Planned Giving Prospect FY24","Superfund Planned Giving Prospect FY24","N"
"9701574","9701574","Poulsbo","WA","98370-7921","N","N","N","N","Y","N","N","N","N","N","Superfund Planned Giving Prospect FY24","Superfund Planned Giving Prospect FY24","N"
"9738824","9738824","Talbott","TN","37877-9047","N","N","N","N","N","N","N","N","N","N","Superfund Midlevel Annual Prospect FY24",,"N"
"9821331","9821331","Simi Valley","CA","93065-1118","N","N","N","N","N","N","N","N","N","N","Superfund Planned Giving Prospect FY24","Superfund Planned Giving Prospect FY24","N"
"10005577","10005577","Philadelphia","PA","19103-2855","N","N","Y","N","N","N","N","N","N","N","Superfund Mid to Major Prospect FY24",,"N"
"10056091","10056091","Steamboat Springs","CO","80477-6232","N","N","Y","N","N","N","N","N","N","N","Superfund Planned Giving Prospect FY24","Superfund Planned Giving Prospect FY24","N"
"10076008","10076008","Amherst","MA","01002-2009","N","N","N","N","N","N","N","N","N","N","Superfund Planned Giving Prospect FY24","Superfund Planned Giving Prospect FY24","N"
"10110336","10110336","Silver Spring","MD","20906-1556","N","N","N","N","Y","N","N","N","N","N",,,"N"
"10129187","10129187","Elgin","IL","60123-2633","N","N","N","N","Y","N","N","N","N","N",,,"N"
"10134328","10134328","Rolling Mdws","IL","60008-2186","N","N","N","N","N","N","N","N","N","N","Superfund Planned Giving Prospect FY24","Superfund Planned Giving Prospect FY24","N"
"10355030","10355030","Ithaca","NY","14850-9246","N","N","N","Y","N","N","N","N","N","N","Superfund Planned Giving Prospect FY24","Superfund Planned Giving Prospect FY24","N"
"10367258","10367258","Placitas","NM","87043-8340","N","N","Y","N","Y","N","N","N","N","N","Superfund Planned Giving Prospect FY24","Superfund Planned Giving Prospect FY24","N"
"10536928","10536928","Bloomington","IN","47401-5232","N","N","N","Y","Y","N","N","N","N","N","Superfund Planned Giving Prospect FY24","Superfund Planned Giving Prospect FY24","N"
"10618056","10618056","New York","NY","10019-1429","N","N","Y","N","N","N","N","N","N","N","Superfund Planned Giving Prospect FY24","Superfund Planned Giving Prospect FY24","N"
"10800449","10800449","Houston","TX","77041","N","N","Y","N","N","N","N","N","N","N",,,"N"
"10800712","10800712","Lilburn","GA","30047-6774","N","N","N","N","N","N","N","N","N","N","Superfund Planned Giving Prospect FY24","Superfund Planned Giving Prospect FY24","N"
"11421369","11421369","Rye","NY","10580-1707","N","N","N","Y","N","N","N","N","N","N","Superfund Planned Giving Prospect FY24","Superfund Planned Giving Prospect FY24","N"
"11450905","11450905","O'Fallon","MO","63368-3904","N","N","N","N","Y","N","N","N","N","N","Superfund Planned Giving Prospect FY24","Superfund Planned Giving Prospect FY24","N"
"11564150","11564150","Glendora","CA","91741-2432","N","N","N","Y","N","N","N","N","N","N","Superfund Planned Giving Prospect FY24","Superfund Planned Giving Prospect FY24","N"
"13085550","13085550","Lake Forest","IL","60045-1480","N","N","N","Y","N","N","N","N","N","N","Superfund Planned Giving Prospect FY24","Superfund Planned Giving Prospect FY24","N"
"13656996","13656996","San Marino","CA","91108-1039","N","N","Y","N","N","N","N","N","N","N","Superfund Planned Giving Prospect FY24","Superfund Planned Giving Prospect FY24","N"
"14431506","14431506","Houston","TX","77002-5424","N","N","Y","N","N","N","N","N","N","N",,,"N"
"14600837","14600837","Rancho Mission Viejo","CA","92694-2445","N","N","Y","N","N","N","N","N","N","N","Superfund Planned Giving Prospect FY24","Superfund Planned Giving Prospect FY24","N"
"15426778","15426778","New York","NY","10011-6328","N","N","Y","N","Y","N","N","N","N","N","Superfund Planned Giving Prospect FY24","Superfund Planned Giving Prospect FY24","N"
"16169492","16169492","Eugene","OR","97405-4688","N","N","N","N","Y","N","N","N","N","N",,,"N"
"16187833","16187833","Des Plaines","IL","60016-2326","N","N","N","N","N","N","N","N","N","N","Superfund Midlevel Annual Prospect FY24",,"N"
"16438079","16438079","Lakeway","TX","78734-3807","N","N","Y","N","Y","N","N","N","N","N","Superfund Planned Giving Prospect FY24","Superfund Planned Giving Prospect FY24","N"
"16576647","16576647","San Francisco","CA","94123-4009","N","N","Y","N","Y","Y","N","N","N","Y","Superfund Planned Giving Prospect FY24","Superfund Planned Giving Prospect FY24","N"
"16597197","16597197","Mt Pleasant","SC","29464-9273","N","N","N","Y","N","N","N","N","N","N","Superfund Planned Giving Prospect FY24","Superfund Planned Giving Prospect FY24","N"
"16681983","16681983","Lexington","MA","02420-3507","N","N","N","N","Y","N","N","N","N","N",,,"N"
"16703464","16703464","Oviedo","FL","32765-8701","N","N","Y","N","N","N","N","N","N","N","Superfund Planned Giving Prospect FY24","Superfund Planned Giving Prospect FY24","N"
"16849564","16849564","West Harrison","IN","47060-7714","N","N","Y","N","N","N","N","N","N","N","Superfund Mid to Major Prospect FY24",,"N"
"16948424","16948424","New York","NY","10023-6055","N","N","Y","N","N","N","N","N","N","N","Superfund Planned Giving Prospect FY24","Superfund Planned Giving Prospect FY24","N"
"17015983","17015983","Deerfield","IL","60015-4406","N","N","N","N","N","N","N","N","N","N","Superfund Planned Giving Prospect FY24","Superfund Planned Giving Prospect FY24","N"
"17251901","17251901","Atlanta","GA","30306-3617","N","N","Y","N","N","N","N","N","N","N","Superfund Planned Giving Prospect FY24","Superfund Planned Giving Prospect FY24","N"
"17554528","17554528","Tucson","AZ","85739-1822","N","N","N","N","Y","N","N","N","N","N",,,"N"
"17721176","17721176","Langley","WA","98260-0306","N","N","Y","N","N","N","N","N","N","N","Superfund Planned Giving Prospect FY24","Superfund Planned Giving Prospect FY24","N"
"17735754","17735754","Cincinnati","OH","45244-3592","N","N","N","N","N","N","Y","N","N","N",,,"N"
"17757337","17757337","San Francisco","CA","94114-1223","N","N","N","N","N","N","N","N","N","N","Superfund Planned Giving Prospect FY24","Superfund Planned Giving Prospect FY24","N"
"17786252","17786252","Fort Wayne","IN","46804-2870","N","N","N","Y","N","N","N","N","N","N","Superfund Planned Giving Prospect FY24","Superfund Planned Giving Prospect FY24","N"
"17862533","17862533","Strongsville","OH","44136-2667","N","N","N","N","N","N","N","N","N","N","Superfund Planned Giving Prospect FY24","Superfund Planned Giving Prospect FY24","N"
"17957416","17957416","Poughkeepsie","NY","12603-2516","N","N","N","N","Y","N","N","N","N","N",,,"N"
"18253120","18253120","Leawood","KS","66206-1413","N","N","N","N","N","N","N","N","N","N","Superfund Planned Giving Prospect FY24","Superfund Planned Giving Prospect FY24","N"
"18303776","18303776","Atlanta","GA","30328-4524","N","N","Y","N","N","N","N","N","N","N","Superfund Planned Giving Prospect FY24","Superfund Planned Giving Prospect FY24","N"
"18340190","18340190","Charlottesvle","VA","22901-2168","N","N","Y","N","Y","N","N","N","N","N","Superfund Planned Giving Prospect FY24","Superfund Planned Giving Prospect FY24","N"
"18540435","18540435","Arlington","TX","76017-2627","N","N","N","Y","N","N","N","N","N","N","Superfund Planned Giving Prospect FY24","Superfund Planned Giving Prospect FY24","N"
"18636357","18636357","Chappaqua","NY","10514-3011","N","N","N","Y","N","N","N","N","N","N","Superfund Planned Giving Prospect FY24","Superfund Planned Giving Prospect FY24","N"
"18710517","18710517","Portland","OR","97223-7367","N","N","N","N","N","N","N","N","N","N","Superfund Planned Giving Prospect FY24","Superfund Planned Giving Prospect FY24","N"
"18724146","18724146","Traverse City","MI","49684-5266","N","N","N","Y","N","N","N","N","N","N","Superfund Planned Giving Prospect FY24","Superfund Planned Giving Prospect FY24","N"
"18730705","18730705","Minneapolis","MN","55424-1318","N","N","Y","N","N","Y","N","N","N","N","Superfund Planned Giving Prospect FY24","Superfund Planned Giving Prospect FY24","N"
"19024868","19024868","Purcellville","VA","20132-6104","N","N","N","N","N","N","N","N","N","N","Superfund Planned Giving Prospect FY24","Superfund Planned Giving Prospect FY24","N"
"19199926","19199926","Shreveport","LA","71101-3289","N","N","Y","N","N","N","N","N","N","N","Superfund Major Gift Prospect FY24",,"N"
"19200187","19200187","Coronado","CA","92118-3258","N","N","Y","N","N","Y","N","N","N","N","Superfund Planned Giving Prospect FY24","Superfund Planned Giving Prospect FY24","N"
"19220789","19220789","Arlington","VA","22201-1004","N","N","N","N","N","N","N","N","N","N","Superfund Planned Giving Prospect FY24","Superfund Planned Giving Prospect FY24","N"
"19226224","19226224","Fond Du Lac","WI","54937-9373","N","N","N","N","N","N","N","N","N","N","Superfund Planned Giving Prospect FY24","Superfund Planned Giving Prospect FY24","N"
"19230291","19230291","Annandale","NJ","08801-3386","N","N","N","N","N","N","N","N","N","N","Superfund Planned Giving Prospect FY24","Superfund Planned Giving Prospect FY24","N"
"19356427","19356427","New York","NY","10023-5725","N","N","N","Y","Y","N","N","N","N","N","Superfund Planned Giving Prospect FY24","Superfund Planned Giving Prospect FY24","N"
"19655257","19655257","Chicago","IL","60614-0046","N","N","Y","N","N","N","N","N","N","N","Superfund Major Gift Prospect FY24",,"N"
"19762483","19762483","Auburn","CA","95603-3642","N","N","N","N","N","N","N","N","N","N","Superfund Planned Giving Prospect FY24","Superfund Planned Giving Prospect FY24","N"
"19906205","19906205","Arlington","VA","22201-1614","N","N","N","Y","N","N","N","N","N","N",,,"N"
"20019642","20019642","Lone Tree","CO","80124-3073","N","N","N","Y","N","N","N","N","N","N","Superfund Leadership Gift Prospect FY24",,"N"
"20110839","20110839","Marlborough","MA","01752-6603","N","N","N","N","N","N","N","N","N","N","Superfund Planned Giving Prospect FY24","Superfund Planned Giving Prospect FY24","N"
"20117271","20117271","Bainbridge Island","WA","98110-2394","N","N","Y","N","N","N","N","N","N","N",,,"N"
"20268983","20268983","Sartell","MN","56377-4516","N","N","N","N","Y","N","N","N","N","N",,,"N"
"20423489","20423489","Stamford","CT","06907-2304","N","N","N","N","Y","N","N","N","N","N",,,"N"
"20425435","20425435","Paradise Vly","AZ","85253-3813","N","N","Y","N","N","N","N","N","N","N","Superfund Planned Giving Prospect FY24","Superfund Planned Giving Prospect FY24","N"
"20471215","20471215","Frenchtown","NJ","08825-1264","N","N","N","N","N","N","N","N","N","N","Superfund Planned Giving Prospect FY24","Superfund Planned Giving Prospect FY24","N"
"20537304","20537304","La Crosse","WI","54601-2294","N","N","N","N","N","N","N","N","N","N","Superfund Planned Giving Prospect FY24","Superfund Planned Giving Prospect FY24","N"
"20559191","20559191","Sneads Ferry","NC","28460-9201","N","N","N","N","Y","N","N","N","N","N","Superfund Planned Giving Prospect FY24","Superfund Planned Giving Prospect FY24","N"
"20626297","20626297","San Francisco","CA","94127-1704","N","N","Y","N","N","N","Y","N","N","N",,,"N"
"20646170","20646170","Cockeysville","MD","21030-1918","N","N","N","N","Y","N","N","N","N","N","Superfund Planned Giving Prospect FY24","Superfund Planned Giving Prospect FY24","N"
"21629001","21629001","Philadelphia","PA","19119-1147","N","N","N","N","N","N","N","N","N","N","Superfund Planned Giving Prospect FY24","Superfund Planned Giving Prospect FY24","N"
"21651302","21651302","Decatur","GA","30033-2021","N","N","N","N","N","N","N","N","N","N","Superfund Planned Giving Prospect FY24","Superfund Planned Giving Prospect FY24","N"
"22746168","22746168","Atlanta","GA","30306-3515","N","N","N","N","N","N","N","N","N","N","Superfund Planned Giving Prospect FY24","Superfund Planned Giving Prospect FY24","N"
"22914618","22914618","Basking Ridge","NJ","07920-2763","N","N","Y","N","N","N","N","N","N","N","Superfund Planned Giving Prospect FY24","Superfund Planned Giving Prospect FY24","N"
"22936561","22936561","Camano Island","WA","98282-7272","N","N","N","N","N","N","N","N","N","N","Superfund Planned Giving Prospect FY24","Superfund Planned Giving Prospect FY24","N"
"23190234","23190234","Hinsdale","IL","60521-4228","N","N","Y","N","N","N","N","N","N","N",,,"N"
"24023079","24023079","Hilton Head","SC","29928-5252","N","N","N","N","N","N","N","N","N","N","Superfund Planned Giving Prospect FY24","Superfund Planned Giving Prospect FY24","N"
"24047920","24047920","Trenton","MI","48183-2432","N","N","N","N","N","N","N","N","N","N","Superfund Planned Giving Prospect FY24","Superfund Planned Giving Prospect FY24","N"
"24431413","24431413","Apollo","PA","15613-9632","N","N","N","N","N","N","N","N","N","N","Superfund Planned Giving Prospect FY24","Superfund Planned Giving Prospect FY24","N"
"24496879","24496879","Scottsdale","AZ","85255-4540","N","N","N","N","Y","N","N","N","N","N","Superfund Planned Giving Prospect FY24","Superfund Planned Giving Prospect FY24","N"
"24530461","24530461","New York","NY","10025-7659","N","N","Y","N","N","N","N","N","N","N","Superfund Planned Giving Prospect FY24","Superfund Planned Giving Prospect FY24","N"
"24642746","24642746","Mineola","TX","75773-1239","N","N","N","N","Y","N","N","N","N","N",,,"N"
"25419664","25419664","White Rock","NM","87547-3806","N","N","N","N","N","N","N","N","N","N","Superfund Planned Giving Prospect FY24","Superfund Planned Giving Prospect FY24","N"
"25472275","25472275","Fort Collins","CO","80521-1276","N","N","N","N","N","N","N","N","N","N","Superfund Planned Giving Prospect FY24","Superfund Planned Giving Prospect FY24","N"
"25860123","25860123","Medina","WA","98039-0147","N","N","Y","N","N","N","N","N","N","N","Superfund Planned Giving Prospect FY24","Superfund Planned Giving Prospect FY24","N"
"25864331","25864331","Orinda","CA","94563-3131","N","N","N","N","N","N","N","N","N","N","Superfund Planned Giving Prospect FY24","Superfund Planned Giving Prospect FY24","N"
"25894114","25894114","Hopkins","MN","55343-8526","N","N","Y","N","N","Y","N","N","N","N","Superfund Planned Giving Prospect FY24","Superfund Planned Giving Prospect FY24","N"
"25983297","25983297","Melbourne Bch","FL","32951-3963","N","N","N","Y","N","N","N","N","N","N","Superfund Planned Giving Prospect FY24","Superfund Planned Giving Prospect FY24","N"
"26011684","26011684","Dallas","TX","75205-3216","N","N","Y","N","N","N","N","N","N","N","Superfund Planned Giving Prospect FY24","Superfund Planned Giving Prospect FY24","N"
"26120014","26120014","McLean","VA","22101-4801","N","N","Y","N","N","Y","N","N","N","Y","Superfund Planned Giving Prospect FY24","Superfund Planned Giving Prospect FY24","N"
"26132514","26132514","Santa Barbara","CA","93108-2113","N","N","Y","N","N","Y","N","N","N","N",,,"N"
"26811224","26811224","Granite Bay","CA","95746-6768","N","N","N","Y","N","N","N","N","N","N","Superfund Planned Giving Prospect FY24","Superfund Planned Giving Prospect FY24","N"
"26845255","26845255","Minneapolis","MN","55424-1236","N","N","Y","N","N","N","N","N","N","N",,,"N"
"26936765","26936765","Houston","TX","77008-4006","N","N","N","N","Y","N","N","N","N","N","Superfund Mid to Major Prospect FY24",,"N"
"26983619","26983619","Philadelphia","PA","19129","N","N","N","N","N","N","N","N","N","N","Superfund Planned Gift Only Prospect FY23",,"N"
"27197946","27197946","Bozeman","MT","59718-9214","N","N","N","N","Y","N","N","N","N","N","Superfund Planned Giving Prospect FY24","Superfund Planned Giving Prospect FY24","N"
"27283589","27283589","Chambersburg","PA","17201-1820","N","N","N","N","Y","N","N","N","N","N",,,"N"
"27396316","27396316","Ashland","OR","97520-0037","N","N","N","N","Y","N","N","N","N","N","Superfund Mid to Major Prospect FY24",,"N"
"27566447","27566447","Falls Church","VA","22041-3154","N","N","N","N","N","N","N","N","N","N","Superfund Planned Giving Prospect FY24","Superfund Planned Giving Prospect FY24","N"
"27922715","27922715","Cockeysville","MD","21030-1419","N","N","N","Y","Y","N","N","N","N","N","Superfund Planned Giving Prospect FY24","Superfund Planned Giving Prospect FY24","N"
"27973601","27973601","Bainbridge Is","WA","98110-2772","N","N","N","N","N","N","N","N","N","N","Superfund Planned Giving Prospect FY24","Superfund Planned Giving Prospect FY24","N"
"27991744","27991744","Spring Valley","OH","45370-8753","N","N","N","N","Y","N","N","N","N","N",,,"N"
"28012086","28012086","La Jolla","CA","92037-7119","N","N","Y","N","N","N","N","N","N","N","Superfund Planned Giving Prospect FY24","Superfund Planned Giving Prospect FY24","N"
"28064749","28064749","Brooklyn","NY","11201-4501","N","N","Y","N","N","N","N","N","N","Y","Superfund Planned Giving Prospect FY24","Superfund Planned Giving Prospect FY24","N"
"28284032","28284032","Brooklyn","NY","11201-2116","N","N","N","N","N","N","N","N","N","N","Superfund Mid to Major Prospect FY24",,"N"
"28455400","28455400","Cupertino","CA","95014-4946","N","N","N","Y","N","N","N","N","N","N","Superfund Planned Giving Prospect FY24","Superfund Planned Giving Prospect FY24","N"
"28570273","28570273","Sarasota","FL","34236-1542","N","N","Y","N","N","N","N","N","N","N","Superfund Planned Giving Prospect FY24","Superfund Planned Giving Prospect FY24","N"
"28717544","28717544","Seattle","WA","98117-5624","N","N","Y","N","N","N","N","N","N","N","Superfund Planned Giving Prospect FY24","Superfund Planned Giving Prospect FY24","N"
"28718815","28718815","Englewood","FL","34223-4247","N","N","N","N","Y","N","N","N","N","N",,,"N"
"28962587","28962587","Rockville","MD","20850-4612","N","N","N","Y","N","N","N","N","N","N",,,"N"
"29025590","29025590","Hot Springs National Park","AR","71913-2790","N","N","N","N","N","N","N","N","N","N","Superfund Planned Giving Prospect FY24","Superfund Planned Giving Prospect FY24","N"
"29038270","29038270","Kensington","MD","20895-3227","N","N","N","Y","N","N","N","N","N","N","Superfund Planned Giving Prospect FY24","Superfund Planned Giving Prospect FY24","N"
"29046786","29046786","Athens","NY","12015-3127","N","N","Y","N","N","N","N","N","N","N","Superfund Mid to Major Prospect FY24",,"N"
"29070505","29070505","Brighton","MA","02135-7893","N","N","Y","N","N","N","N","N","N","N","Superfund Major Gift Prospect FY24",,"N"
"29830114","29830114","Pittsboro","NC","27312-8639","N","N","N","N","N","N","N","N","N","N","Superfund Planned Giving Prospect FY24","Superfund Planned Giving Prospect FY24","N"
"29928082","29928082","Portland","OR","97221-2303","N","N","Y","N","N","N","N","N","N","N","Superfund Planned Giving Prospect FY24","Superfund Planned Giving Prospect FY24","N"
"30063788","30063788","Wayne","IL","60184-2228","N","N","N","Y","N","N","N","N","N","N","Superfund Planned Giving Prospect FY24","Superfund Planned Giving Prospect FY24","N"
"30138325","30138325","Camp Hill","PA","17011-1134","N","N","N","N","Y","N","N","N","N","N",,,"N"
"30174064","30174064","Rochester","MN","55901-8083","N","N","N","Y","N","N","N","N","N","N",,,"N"
"30191290","30191290","Saint Paul","MN","55102-2124","N","N","Y","N","N","N","Y","N","N","N",,,"N"
"30269799","30269799","Durham","NC","27703-8385","N","N","Y","N","Y","N","N","N","N","N",,,"N"
"30294086","30294086","Aurora","CO","80015-1715","N","N","N","N","N","N","N","N","N","N","Superfund Planned Giving Prospect FY24","Superfund Planned Giving Prospect FY24","N"
"30392104","30392104","Albuquerque","NM","87111-2134","N","N","N","N","Y","N","N","N","N","N","Superfund Planned Giving Prospect FY24","Superfund Planned Giving Prospect FY24","N"
"30481048","30481048","Birmingham","AL","35244-2278","N","N","N","N","Y","N","N","N","N","N","Superfund Planned Giving Prospect FY24","Superfund Planned Giving Prospect FY24","N"
"30516678","30516678","Warrington","PA","18976-1731","N","N","Y","N","N","N","N","N","N","N","Superfund Planned Giving Prospect FY24","Superfund Planned Giving Prospect FY24","N"
"30698617","30698617","Austin","TX","78756-3630","N","N","Y","N","N","N","Y","N","N","N","Superfund Planned Giving Prospect FY24","Superfund Planned Giving Prospect FY24","N"
"30698641","30698641","Littleton","CO","80123-2897","N","N","Y","N","N","N","N","N","N","N",,,"N"
"30710305","30710305","Lake Forest","IL","60045-1147","N","N","Y","N","N","N","N","N","N","N",,,"N"
"30904445","30904445","Chevy Chase","MD","20815-5147","N","N","Y","N","N","N","N","N","N","N","Superfund Planned Giving Prospect FY24","Superfund Planned Giving Prospect FY24","N"
"30910863","30910863","Silver Spring","MD","20910-1503","N","N","N","Y","N","N","N","N","N","N","Superfund Planned Giving Prospect FY24","Superfund Planned Giving Prospect FY24","N"
"30919260","30919260","Denver","CO","80227-3866","N","N","N","N","N","N","N","N","N","N","Superfund Planned Giving Prospect FY24","Superfund Planned Giving Prospect FY24","N"
"30943583","30943583","San Diego","CA","92105-5006","N","N","N","N","N","N","N","N","N","N","Superfund Midlevel Annual Prospect FY24",,"N"
"31256431","31256431","Alexandria","VA","22304-4047","N","N","N","N","N","N","N","N","N","N","Superfund Planned Giving Prospect FY24","Superfund Planned Giving Prospect FY24","N"
"31425713","31425713","San Geronimo","CA","94963-0175","N","N","Y","N","N","N","N","N","N","N",,,"N"
"31741580","31741580","Calabasas","CA","91302-3674","N","N","Y","N","N","N","N","N","N","N","Superfund Planned Giving Prospect FY24","Superfund Planned Giving Prospect FY24","N"
"32132961","32132961","Castle Rock","CO","80108-9358","N","N","N","Y","N","N","N","N","N","N","Superfund Planned Giving Prospect FY24","Superfund Planned Giving Prospect FY24","N"
"32153256","32153256","Bonita Springs","FL","34134-6713","N","N","Y","N","N","N","N","N","N","N","Superfund Planned Giving Prospect FY24","Superfund Planned Giving Prospect FY24","N"
"32278103","32278103","Key Largo","FL","33037-3771","N","N","Y","N","N","N","Y","N","N","N","Superfund Planned Giving Prospect FY24","Superfund Planned Giving Prospect FY24","N"
"32335903","32335903","Holladay","UT","84121-5917","N","N","Y","N","N","N","N","N","N","N","Superfund Mid to Major Prospect FY24",,"N"
"32404147","32404147","Harriman","TN","37748-3634","N","N","N","Y","N","N","N","N","N","N","Superfund Planned Giving Prospect FY24","Superfund Planned Giving Prospect FY24","N"
"32407405","32407405","Lahaina","HI","96761-9349","N","N","Y","N","Y","N","N","N","N","N","Superfund Mid to Major Prospect FY24",,"N"
"32513236","32513236","Lake St Louis","MO","63367-1801","N","N","N","N","N","N","N","N","N","N","Superfund Midlevel Annual Prospect FY24",,"N"
"32577702","32577702","Egg Hbr Twp","NJ","08234-7729","N","N","N","N","Y","N","N","N","N","N",,,"N"
"33166752","33166752","Newport Coast","CA","92657-1020","N","N","N","N","N","N","N","N","N","N","Superfund Planned Giving Prospect FY24","Superfund Planned Giving Prospect FY24","N"
"33278433","33278433","Columbus","IN","47201-9105","N","N","Y","N","N","N","N","N","N","N","Superfund Planned Giving Prospect FY24","Superfund Planned Giving Prospect FY24","N"
"33324013","33324013","Wayzata","MN","55391-1512","N","N","Y","N","N","N","N","N","N","N","Superfund Planned Giving Prospect FY24","Superfund Planned Giving Prospect FY24","N"
"33675778","33675778","Medina","OH","44256-8627","N","N","N","N","N","N","N","N","N","N","Superfund Planned Giving Prospect FY24","Superfund Planned Giving Prospect FY24","N"
"33767955","33767955","Chapel Hill","NC","27517-7510","N","N","N","Y","N","N","N","N","N","N","Superfund Planned Giving Prospect FY24","Superfund Planned Giving Prospect FY24","N"
"33903972","33903972","Dallas","TX","75201-2911","N","N","Y","N","N","N","N","N","N","N","Superfund Planned Giving Prospect FY24","Superfund Planned Giving Prospect FY24","N"
"33940453","33940453","Brooklyn","NY","11238-5708","N","N","Y","N","N","N","N","N","N","N","Superfund Planned Giving Prospect FY24","Superfund Planned Giving Prospect FY24","N"
"35008712","35008712","Eagle","WI","53119-2219","N","N","N","N","N","N","N","N","N","N","Superfund Mid to Major Prospect FY24",,"N"
"35009755","35009755","Lake Oswego","OR","97034-5207","N","N","N","Y","N","N","N","N","N","N","Superfund Planned Giving Prospect FY24","Superfund Planned Giving Prospect FY24","N"
"35016646","35016646","Savannah","GA","31411-2966","N","N","Y","N","N","N","N","N","N","N","Superfund Planned Giving Prospect FY24","Superfund Planned Giving Prospect FY24","N"
"35016866","35016866","Silverdale","WA","98383-9437","N","N","N","N","N","N","N","N","N","N","Superfund Planned Giving Prospect FY24","Superfund Planned Giving Prospect FY24","N"
"35020427","35020427","Boulder","CO","80301-5029","N","N","Y","N","N","N","N","N","N","N","Superfund Planned Giving Prospect FY24","Superfund Planned Giving Prospect FY24","N"
"35065044","35065044","Simi Valley","CA","93065-0637","N","N","N","Y","N","N","N","N","N","N","Superfund Mid to Major Prospect FY24",,"N"
"35112861","35112861","New York","NY","10014-2384","N","N","N","N","N","N","Y","N","N","N",,,"N"
"35129659","35129659","Naples","FL","34113-7502","N","N","N","N","Y","N","N","N","N","N","Superfund Planned Giving Prospect FY24","Superfund Planned Giving Prospect FY24","N"
"35260769","35260769","Asheville","NC","28803-1982","N","N","N","N","N","N","N","N","N","N","Superfund Planned Giving Prospect FY24","Superfund Planned Giving Prospect FY24","N"
"35271246","35271246","Issaquah","WA","98027-2961","N","N","N","N","N","N","N","N","N","N","Superfund Planned Giving Prospect FY24","Superfund Planned Giving Prospect FY24","N"
"35314095","35314095","Los Angeles","CA","90046-1215","N","N","N","Y","N","N","N","N","N","N","Superfund Planned Giving Prospect FY24","Superfund Planned Giving Prospect FY24","N"
"35496348","35496348","Fairbanks","AK","99708-3790","N","N","N","N","N","N","N","N","N","N","Superfund Planned Giving Prospect FY24","Superfund Planned Giving Prospect FY24","N"
"35550029","35550029","Seattle","WA","98127-1301","N","N","Y","N","N","N","N","N","N","N","Superfund Planned Giving Prospect FY24","Superfund Planned Giving Prospect FY24","N"
"35597236","35597236","San Anselmo","CA","94979","N","N","Y","N","N","N","N","N","N","N",,,"N"
"35661040","35661040","Loomis","CA","95650-9337","N","N","N","N","Y","N","N","N","N","N",,,"N"
"35712793","35712793","Haverford","PA","19041-1719","N","N","Y","N","N","N","N","N","N","N",,,"N"
"35891415","35891415","Hermosa Beach","CA","90254-2135","N","N","Y","N","N","Y","N","N","N","Y","Superfund Planned Giving Prospect FY24","Superfund Planned Giving Prospect FY24","N"
"35960210","35960210","New York","NY","10069-1031","N","N","Y","N","N","N","N","N","N","N","Superfund Planned Giving Prospect FY24","Superfund Planned Giving Prospect FY24","N"
"35982180","35982180","Catonsville","MD","21228-5503","N","N","Y","N","N","N","N","N","N","N",,,"N"
"36034569","36034569","San Antonio","TX","78257-1211","N","N","Y","N","N","N","N","N","N","N","Superfund Planned Giving Prospect FY24","Superfund Planned Giving Prospect FY24","N"
"36105450","36105450","Los Osos","CA","93402-4620","N","N","Y","N","N","N","N","N","N","N",,,"N"
"36112399","36112399","Seattle","WA","98112-3804","N","N","N","Y","N","N","N","N","N","N",,,"N"
"36318624","36318624","Seattle","WA","98119","N","N","Y","N","N","N","N","N","N","N",,,"N"
"36340701","36340701","Ridgefield","CT","06877-4832","N","N","N","N","Y","N","N","N","N","N","Superfund Planned Giving Prospect FY24","Superfund Planned Giving Prospect FY24","N"
"36461093","36461093","Chicago","IL","60607-3115","N","N","Y","N","N","N","N","N","N","N","Superfund Planned Giving Prospect FY24","Superfund Planned Giving Prospect FY24","N"
"36486173","36486173","Chester","VT","05143-9839","N","N","Y","N","N","Y","N","N","N","N",,,"N"
"36562049","36562049","Seattle","WA","98116-2148","N","N","Y","N","N","N","N","N","N","Y","Superfund Planned Giving Prospect FY24","Superfund Planned Giving Prospect FY24","N"
"36647097","36647097","Johnson City","TN","37601-3326","N","N","Y","N","N","N","N","N","N","N","Superfund Planned Giving Prospect FY24","Superfund Planned Giving Prospect FY24","N"
"36894988","36894988","Vienna","VA","22182-1405","N","N","Y","N","N","N","N","N","N","Y","Superfund Planned Giving Prospect FY24","Superfund Planned Giving Prospect FY24","N"
"37032687","37032687","Huntley","IL","60142-7744","N","N","N","N","N","N","N","N","N","N","Superfund Planned Giving Prospect FY24","Superfund Planned Giving Prospect FY24","N"
"37122512","37122512","Bryn Mawr","PA","19010-1251","N","N","Y","N","N","N","N","N","N","N",,,"N"
"37147584","37147584","Wilson","WY","83014-0513","N","N","Y","N","N","Y","N","N","N","N","Superfund Planned Giving Prospect FY24","Superfund Planned Giving Prospect FY24","N"
"37264850","37264850","Alexandria","VA","22314-1388","N","N","N","Y","N","N","N","N","N","N","Superfund Midlevel Annual Prospect FY24",,"N"
"37313566","37313566","Charleston","WV","25314-1258","N","N","Y","N","N","Y","N","N","N","N","Superfund Planned Giving Prospect FY24","Superfund Planned Giving Prospect FY24","N"
"37347564","37347564","Houston","TX","77057-1426","N","N","Y","N","N","Y","N","N","N","N","Superfund Planned Giving Prospect FY24","Superfund Planned Giving Prospect FY24","N"
"37422698","37422698","New York","NY","10021-2667","N","N","Y","N","N","Y","N","N","N","N",,,"N"
"37438306","37438306","Waco","TX","76708-0128","N","N","Y","N","Y","N","N","N","N","N","Superfund Mid to Major Prospect FY24",,"N"
"37508405","37508405","Minneapolis","MN","55410-2127","N","N","N","N","N","N","N","N","N","N","Superfund Planned Giving Prospect FY24","Superfund Planned Giving Prospect FY24","N"
"37620051","37620051","Sherman Oaks","CA","91403-3405","N","N","N","Y","N","N","N","N","N","N","Superfund Planned Giving Prospect FY24","Superfund Planned Giving Prospect FY24","N"
"37714136","37714136","Half Moon Bay","CA","94019-4901","N","N","N","Y","N","N","N","N","N","N",,,"N"
"37725009","37725009","Stow","MA","01775-1019","N","N","N","N","Y","N","N","N","N","N",,,"N"
"37826997","37826997","Chicago","IL","60657-4024","N","N","Y","N","N","N","N","N","N","N","Superfund Planned Giving Prospect FY24","Superfund Planned Giving Prospect FY24","N"
"37834223","37834223","Glyndon","MD","21136-4835","N","N","Y","N","N","N","N","N","N","N",,,"N"
"37837143","37837143","New York","NY","10022-8082","N","Y","Y","N","N","N","N","N","N","N","Superfund Planned Giving Prospect FY24","Superfund Planned Giving Prospect FY24","N"
"37968674","37968674","Devon","PA","19333-1701","N","N","Y","N","N","N","N","N","N","N","Superfund Planned Giving Prospect FY24","Superfund Planned Giving Prospect FY24","N"
"38008900","38008900","Menlo Park","CA","94025-6677","N","N","Y","N","N","N","N","N","N","N","Superfund Planned Giving Prospect FY24","Superfund Planned Giving Prospect FY24","N"
"38163119","38163119","Greenwich","CT","06830-3801","N","N","N","N","N","N","N","N","N","N","Superfund Leadership Gift Prospect FY24",,"N"
"38222618","38222618","Los Angeles","CA","90077-3424","N","N","Y","N","N","N","N","N","N","N","Superfund Planned Giving Prospect FY24","Superfund Planned Giving Prospect FY24","N"
"38321253","38321253","Fayetteville","AR","72703-5395","N","N","N","Y","N","N","N","N","N","N","Superfund Mid to Major Prospect FY24",,"N"
"38349825","38349825","Pebble Beach","CA","93953-0314","N","N","Y","N","N","N","N","N","N","N","Superfund Planned Giving Prospect FY24","Superfund Planned Giving Prospect FY24","N"
"38353785","38353785","Medina","WA","98039-5336","N","N","N","Y","N","N","N","N","N","N",,,"N"
"38355731","38355731","Wallkill","NY","12589-3314","N","N","N","N","Y","N","N","N","N","N",,,"N"
"38379467","38379467","Boylston","MA","01505-1316","N","N","Y","N","N","N","N","N","N","N","Superfund Planned Giving Prospect FY24","Superfund Planned Giving Prospect FY24","N"
"38445581","38445581","Williamstown","MA","01267-3107","N","N","N","Y","Y","N","N","N","N","N","Superfund Planned Giving Prospect FY24","Superfund Planned Giving Prospect FY24","N"
"38448429","38448429","Charlottesvle","VA","22901-5487","N","N","N","N","N","N","N","N","N","N","Superfund Planned Giving Prospect FY24","Superfund Planned Giving Prospect FY24","N"
"38448494","38448494","Southwest Hbr","ME","04679-0531","N","N","N","Y","N","Y","N","N","N","N",,,"N"
"38465803","38465803","Asheville","NC","28801-2141","N","N","Y","N","N","N","N","N","N","N",,,"N"
"38499547","38499547","Herndon","VA","20170-3009","N","N","N","Y","N","N","N","N","N","N","Superfund Planned Giving Prospect FY24","Superfund Planned Giving Prospect FY24","N"
"38635058","38635058","Kansas City","MO","64113-1816","N","N","Y","N","N","N","N","N","N","N","Superfund Planned Giving Prospect FY24","Superfund Planned Giving Prospect FY24","N"
"38690921","38690921","College Grove","TN","37046-9192","N","N","Y","N","N","N","N","N","N","N",,,"N"
"39019856","39019856","Lake Bluff","IL","60044-0126","N","N","Y","N","N","Y","N","N","N","N","Superfund Mid to Major Prospect FY24",,"N"
"39303904","39303904","Hoschton","GA","30548-5536","N","N","Y","N","Y","Y","N","N","N","N","Superfund Mid to Major Prospect FY24",,"N"
"39501929","39501929","Baltimore","MD","21218-1707","N","N","N","N","N","N","N","N","N","N","Superfund Major Gift Prospect FY24",,"N"
"39533641","39533641","Cambridg Spgs","PA","16403-4627","N","N","N","N","Y","N","N","N","N","N",,,"N"
"39541602","39541602","Minneapolis","MN","55402-2475","N","N","N","N","N","N","N","N","N","N","Superfund Planned Giving Prospect FY24","Superfund Planned Giving Prospect FY24","N"
"39546981","39546981","Pompton Plns","NJ","07444-1515","N","N","N","N","Y","N","N","N","N","N","Superfund Planned Giving Prospect FY24","Superfund Planned Giving Prospect FY24","N"
"39616198","39616198","Berkeley","CA","94707-2612","N","N","Y","N","N","N","N","N","N","N",,,"N"
"39746003","39746003","New York","NY","10002-2061","N","N","Y","N","Y","N","N","N","N","N","Superfund Planned Giving Prospect FY24","Superfund Planned Giving Prospect FY24","N"
"39791587","39791587","Tampa","FL","33601-1498","N","N","Y","N","N","N","N","N","N","N",,,"N"
"39821640","39821640","Sierra Madre","CA","91024-1032","N","N","Y","N","Y","Y","N","N","N","N","Superfund Planned Giving Prospect FY24","Superfund Planned Giving Prospect FY24","N"
"39902325","39902325","Menlo Park","CA","94025-2667","N","N","N","N","N","N","N","N","N","N","Superfund Planned Giving Prospect FY24","Superfund Planned Giving Prospect FY24","N"
"39921861","39921861","Flat Rock","NC","28731-7605","N","N","N","Y","N","N","N","N","N","N","Superfund Planned Giving Prospect FY24","Superfund Planned Giving Prospect FY24","N"
"39973722","39973722","Sandy","UT","84092-7301","N","N","N","N","Y","N","N","N","N","N","Superfund Planned Giving Prospect FY24","Superfund Planned Giving Prospect FY24","N"
"40026759","40026759","Bainbridge Is","WA","98110-2960","N","N","Y","N","N","N","N","N","N","N","Superfund Planned Giving Prospect FY24","Superfund Planned Giving Prospect FY24","N"
"40058158","100117206","Lake Forest","IL","60045-2682","N","N","N","N","N","N","N","N","N","N","Superfund Planned Giving Prospect FY24","Superfund Planned Giving Prospect FY24","N"
"40137549","40137549","Saint Paul","MN","55116-1906","N","N","N","Y","N","Y","N","N","N","N","Superfund Planned Giving Prospect FY24","Superfund Planned Giving Prospect FY24","N"
"40223802","40223802","Mundelein","IL","60060-9595","N","N","N","Y","N","N","N","N","N","N","Superfund Planned Giving Prospect FY24","Superfund Planned Giving Prospect FY24","N"
"40282352","40282352","Sedalia","CO","80135-8863","N","N","N","Y","N","N","N","N","N","N","Superfund Planned Giving Prospect FY24","Superfund Planned Giving Prospect FY24","N"
"40348369","40348369","Chapel Hill","NC","27517-8065","N","N","N","Y","N","N","N","N","N","N","Superfund Planned Giving Prospect FY24","Superfund Planned Giving Prospect FY24","N"
"40366304","40366304","San Antonio","TX","78232-3820","N","N","Y","N","N","Y","N","N","N","N","Superfund Planned Giving Prospect FY24","Superfund Planned Giving Prospect FY24","N"
"40405854","40405854","Fort Wayne","IN","46802-5937","N","N","N","Y","N","N","N","N","N","N","Superfund Mid to Major Prospect FY24",,"N"
"40481392","40481392","Tempe","AZ","85248-7876","N","N","Y","N","N","N","N","N","N","N","Superfund Planned Giving Prospect FY24","Superfund Planned Giving Prospect FY24","N"
"40489742","40489742","Miami","FL","33156-2325","N","N","Y","N","N","N","N","N","N","N","Superfund Planned Giving Prospect FY24","Superfund Planned Giving Prospect FY24","N"
"40595449","40595449","Boulder","CO","80304-4372","N","N","N","N","N","N","N","N","N","N","Superfund Planned Giving Prospect FY24","Superfund Planned Giving Prospect FY24","N"
"40675720","40675720","Fairfax","VA","22030-5772","N","N","N","N","Y","N","N","N","N","N","Superfund Planned Giving Prospect FY24","Superfund Planned Giving Prospect FY24","N"
"40710865","40710865","Bethesda","MD","20814-1333","N","N","Y","N","N","Y","Y","N","N","Y","Superfund Planned Giving Prospect FY24","Superfund Planned Giving Prospect FY24","N"
"40745432","40745432","Mountain View","CA","94040-3657","N","N","Y","N","N","N","N","N","N","N","Superfund Planned Giving Prospect FY24","Superfund Planned Giving Prospect FY24","N"
"40790115","40790115","New York","NY","10022-4731","N","N","Y","N","N","Y","N","N","N","N","Superfund Planned Giving Prospect FY24","Superfund Planned Giving Prospect FY24","N"
"40896599","40896599","Arroyo Hondo","NM","87513-0555","N","N","Y","N","N","N","N","N","N","N","Superfund Planned Giving Prospect FY24","Superfund Planned Giving Prospect FY24","N"
"40989402","40989402","Fern Bch","FL","32034-7821","N","N","N","N","Y","N","N","N","N","N",,,"N"
"41080805","41080805","Vancouver","WA","98665-6012","N","N","N","Y","N","N","N","N","N","N",,,"N"
"41128562","41128562","New York","NY","10023-5278","N","N","N","Y","N","N","N","N","N","N","Superfund Planned Giving Prospect FY24","Superfund Planned Giving Prospect FY24","N"
"41207374","41207374","Englewood","CO","80113-4034","N","N","N","N","N","N","N","N","N","N","Superfund Planned Giving Prospect FY24","Superfund Planned Giving Prospect FY24","N"
"41239492","41239492","Shawano","WI","54166-6090","N","N","N","Y","N","N","N","N","N","N",,,"N"
"41297755","41297755","Menlo Park","CA","94025-7113","N","N","N","Y","N","N","N","N","N","N",,,"N"
"41307331","41307331","New Prague","MN","56071-7828","N","N","N","Y","N","N","N","N","N","N","Superfund Planned Giving Prospect FY24","Superfund Planned Giving Prospect FY24","N"
"41343740","41343740","Highland","MD","20777-9779","N","N","N","Y","Y","N","N","N","N","N","Superfund Planned Giving Prospect FY24","Superfund Planned Giving Prospect FY24","N"
"41372988","41372988","Norwalk","CT","06855-2518","N","N","Y","N","N","N","N","N","N","N","Superfund Planned Giving Prospect FY24","Superfund Planned Giving Prospect FY24","N"
"41382599","41382599","Forest Grove","OR","97116-8030","N","N","N","N","N","N","N","N","N","N","Superfund Planned Giving Prospect FY24","Superfund Planned Giving Prospect FY24","N"
"41912577","41912577","Park City","UT","84068-1866","N","N","Y","N","N","N","N","N","N","N","Superfund Planned Giving Prospect FY24","Superfund Planned Giving Prospect FY24","N"
"44188779","44188779","Minneapolis","MN","55405-2434","N","N","Y","N","N","N","N","N","N","N","Superfund Planned Giving Prospect FY24","Superfund Planned Giving Prospect FY24","N"
"44360576","44360576","Greenwich","CT","06830-6627","N","N","Y","N","N","Y","Y","N","N","N","Superfund Planned Giving Prospect FY24","Superfund Planned Giving Prospect FY24","N"
"45564176","45564176","Denver","CO","80202-6248","N","N","Y","N","N","N","N","N","N","N","Superfund Planned Giving Prospect FY24","Superfund Planned Giving Prospect FY24","N"
"45746575","45746575","Pelham","AL","35124-1441","N","N","N","N","N","N","N","N","N","N","Superfund Planned Giving Prospect FY24","Superfund Planned Giving Prospect FY24","N"
"45818176","45818176","Dallas","TX","75204-1605","N","N","Y","N","N","N","N","N","N","N",,,"N"
"48439772","48439772","Minneapolis","MN","55401-1931","N","N","Y","N","N","N","Y","N","N","N","Superfund Planned Giving Prospect FY24","Superfund Planned Giving Prospect FY24","N"
"49567571","49567571","Winnetka","IL","60093-3749","N","N","N","N","N","N","N","N","N","N","Superfund Planned Giving Prospect FY24","Superfund Planned Giving Prospect FY24","N"
"50058973","50058973","Pacific Plsds","CA","90272-1909","N","N","Y","N","N","N","N","N","N","N","Superfund Planned Giving Prospect FY24","Superfund Planned Giving Prospect FY24","N"
"50303775","50303775","Durham","NC","27713-6092","N","N","N","N","N","N","N","N","N","N","Superfund Planned Giving Prospect FY24","Superfund Planned Giving Prospect FY24","N"
"50638576","50638576","Commerce City","CO","80022-0560","N","N","N","Y","N","N","N","N","N","N","Superfund Mid to Major Prospect FY24",,"N"
"50978790","50978790","Brooklyn","NY","11215-1404","N","N","N","N","Y","N","N","N","N","N",,,"N"
"51125177","51125177","Palo Alto","CA","94302-0560","N","N","Y","N","N","N","N","N","N","Y","Superfund Planned Giving Prospect FY24","Superfund Planned Giving Prospect FY24","N"
"51438588","51438588","Fairfax","VA","22030-4484","N","N","N","N","N","N","N","N","N","N","Superfund Planned Giving Prospect FY24","Superfund Planned Giving Prospect FY24","N"
"52071578","52071578","Garland","TX","75044-7164","N","N","N","N","N","N","N","N","N","N","Superfund Planned Giving Prospect FY24","Superfund Planned Giving Prospect FY24","N"
"52742772","52742772","Tempe","AZ","85282-3918","N","N","Y","N","N","Y","N","N","N","N","Superfund Planned Giving Prospect FY24","Superfund Planned Giving Prospect FY24","N"
"52856770","52856770","Oakland","CA","94610-4964","N","N","N","Y","N","N","N","N","N","N",,,"N"
"53035424","53035424","Pahoa","HI","96778-8571","N","N","Y","N","Y","N","N","N","N","N","Superfund Mid to Major Prospect FY24",,"N"
"53123378","53123378","Dublin","CA","94568-7983","N","N","Y","N","N","Y","N","N","N","N","Superfund Planned Giving Prospect FY24","Superfund Planned Giving Prospect FY24","N"
"53738183","53738183","Potomac","MD","20854-2712","N","N","N","Y","N","N","N","N","N","N","Superfund Planned Giving Prospect FY24","Superfund Planned Giving Prospect FY24","N"
"54402771","54402771","Pleasantville","NY","10570-3914","N","Y","Y","N","N","N","N","N","N","N","Superfund Leadership Gift Prospect FY24",,"N"
"54557970","54557970","New York","NY","10022","N","N","Y","N","N","N","N","N","N","N",,,"N"
"54681374","54681374","Rock Hill","NY","12775-0531","N","N","N","Y","N","N","N","N","N","N","Superfund Planned Giving Prospect FY24","Superfund Planned Giving Prospect FY24","N"
"55339170","55339170","New York","NY","10128-0648","N","N","Y","N","N","N","N","N","N","N","Superfund Planned Giving Prospect FY24","Superfund Planned Giving Prospect FY24","N"
"55595383","55595383","New York","NY","10014-2779","N","N","Y","N","N","N","N","N","N","N",,,"N"
"56056484","56056484","Escondido","CA","92025-5511","N","N","Y","N","N","N","N","N","N","N","Superfund Planned Giving Prospect FY24","Superfund Planned Giving Prospect FY24","N"
"56398878","56398878","Greenville","SC","29617-2000","N","N","N","Y","Y","N","N","N","N","N","Superfund Mid to Major Prospect FY24",,"N"
"56467582","56467582","Rio Rico","AZ","85648-9722","N","N","N","N","Y","N","N","N","N","N",,,"N"
"56562002","56562002","Boone","IA","50036-4723","N","N","N","N","Y","N","N","N","N","N",,,"N"
"56603970","56603970","San Diego","CA","92130-3087","N","N","N","Y","N","N","N","N","N","N","Superfund Planned Giving Prospect FY24","Superfund Planned Giving Prospect FY24","N"
"56726789","56726789","Nashville","TN","37215-4341","N","N","Y","N","N","Y","N","N","N","N","Superfund Planned Giving Prospect FY24","Superfund Planned Giving Prospect FY24","N"
"56821978","56821978","Kearney","NE","68845-1805","N","N","N","N","N","N","N","N","N","N","Superfund Planned Giving Prospect FY24","Superfund Planned Giving Prospect FY24","N"
"56971575","56971575","Golden","CO","80401-2576","N","N","N","Y","N","N","N","N","N","N","Superfund Planned Giving Prospect FY24","Superfund Planned Giving Prospect FY24","N"
"57181596","57181596","Farmingtn Hls","MI","48331-1199","N","N","N","N","N","N","N","N","N","N","Superfund Planned Giving Prospect FY24","Superfund Planned Giving Prospect FY24","N"
"57845976","57845976","San Francisco","CA","94131-2634","N","N","N","Y","N","N","N","N","N","N","Superfund Planned Giving Prospect FY24","Superfund Planned Giving Prospect FY24","N"
"58447012","58447012","New Hope","PA","18938-2225","N","N","N","Y","N","N","N","N","N","N","Superfund Planned Giving Prospect FY24","Superfund Planned Giving Prospect FY24","N"
"59149302","59149302","Gibsonia","PA","15044-6069","N","N","N","Y","N","N","N","N","N","N","Superfund Planned Giving Prospect FY24","Superfund Planned Giving Prospect FY24","N"
"59218800","59218800","Des Plaines","IL","60018-1656","N","N","N","Y","N","N","N","N","N","N","Superfund Planned Giving Prospect FY24","Superfund Planned Giving Prospect FY24","N"
"60280971","60280971","Blue Hill","ME","04614-0878","N","N","N","Y","N","N","N","N","N","N","Superfund Major Gift Prospect FY24",,"N"
"60551173","60551173","Los Angeles","CA","90064-4512","N","N","N","Y","Y","N","N","N","N","N",,,"N"
"61112876","61112876","Durango","CO","81301-8821","N","N","N","N","Y","N","N","N","N","N","Superfund Planned Giving Prospect FY24","Superfund Planned Giving Prospect FY24","N"
"61113072","61113072","Sparks","NV","89436-8173","N","N","N","N","Y","N","N","N","N","N",,,"N"
"61563771","61563771","Oak View","CA","93022-9231","N","N","N","N","N","N","N","N","N","N","Superfund Planned Giving Prospect FY24","Superfund Planned Giving Prospect FY24","N"
"61623153","61623153","Inver Grove","MN","55077-2162","N","N","N","N","N","N","N","N","N","N","Superfund Planned Giving Prospect FY24","Superfund Planned Giving Prospect FY24","N"
"61662763","61662763","San Antonio","TX","78212-2301","N","N","Y","N","N","N","N","N","N","N","Superfund Planned Giving Prospect FY24","Superfund Planned Giving Prospect FY24","N"
"61768164","61768164","Flagstaff","AZ","86001-0727","N","N","N","N","N","N","N","N","N","N","Superfund Planned Giving Prospect FY24","Superfund Planned Giving Prospect FY24","N"
"62046370","62046370","Friday Harbor","WA","98250-8515","N","N","Y","N","N","N","N","N","N","N","Superfund Planned Giving Prospect FY24","Superfund Planned Giving Prospect FY24","N"
"62449376","62449376","Bainbridge Is","WA","98110-3366","N","N","Y","N","N","N","N","N","N","N","Superfund Planned Giving Prospect FY24","Superfund Planned Giving Prospect FY24","N"
"63367783","63367783","Wheeling","WV","26003-2826","N","N","Y","N","N","N","N","N","N","N","Superfund Major Gift Prospect FY24",,"N"
"63389787","63389787","Tualatin","OR","97062-1819","N","N","N","Y","N","N","N","N","N","N",,,"N"
"64115975","64115975","Sarasota","FL","34232-1594","N","N","Y","N","N","N","N","N","N","N",,,"N"
"64118193","64118193","Seattle","WA","98102-3203","N","N","N","N","N","N","N","N","N","N","Superfund Planned Giving Prospect FY24","Superfund Planned Giving Prospect FY24","N"
"64164387","64164387","Springfield","VA","22153-1315","N","N","N","N","Y","N","N","N","N","N",,,"N"
"64348725","64348725","Boulder","CO","80302-4617","N","N","N","Y","N","Y","N","N","N","N",,,"N"
"64367592","64367592","Steamboat Springs","CO","80487-2300","N","N","Y","N","N","N","N","N","N","N",,,"N"
"64371578","64371578","Austin","TX","78734-1008","N","N","N","Y","Y","N","N","N","N","N","Superfund Planned Giving Prospect FY24","Superfund Planned Giving Prospect FY24","N"
"64418619","64418619","Saint Louis","MO","63130-4425","N","N","Y","N","N","N","N","N","N","N","Superfund Planned Giving Prospect FY24","Superfund Planned Giving Prospect FY24","N"
"64525397","64525397","Park City","UT","84098-4701","N","N","N","Y","N","N","N","N","N","N",,,"N"
"64627805","64627805","Crystal Lake","IL","60014-5243","N","N","N","N","N","N","N","N","N","N","Superfund Planned Giving Prospect FY24","Superfund Planned Giving Prospect FY24","N"
"64755382","64755382","Naples","FL","34101-7337","N","N","Y","N","N","N","N","N","N","N","Superfund Planned Giving Prospect FY24","Superfund Planned Giving Prospect FY24","N"
"65090979","65090979","Iowa City","IA","52245-3212","N","N","N","N","N","N","N","N","N","N","Superfund Midlevel Annual Prospect FY24",,"N"
"65628984","65628984","Salt Lake City","UT","84110","N","N","N","N","N","N","N","N","Y","N",,,"N"
"65946782","65946782","Douglas","MI","49406-0771","N","N","Y","N","N","Y","N","N","N","N",,,"N"
"66211681","66211681","Bellingham","WA","98225-6348","N","N","Y","N","N","N","N","N","N","N","Superfund Planned Giving Prospect FY24","Superfund Planned Giving Prospect FY24","N"
"67743955","67743955","Seattle","WA","98199-2757","N","N","N","Y","N","N","N","N","N","N","Superfund Planned Giving Prospect FY24","Superfund Planned Giving Prospect FY24","N"
"67760025","67760025","Reston","VA","20190-3902","N","N","Y","N","N","N","N","N","N","N",,,"N"
"68211127","68211127","Santa Ana","CA","92705-5907","N","N","N","Y","N","N","N","N","N","N","Superfund Planned Giving Prospect FY24","Superfund Planned Giving Prospect FY24","N"
"68408293","68408293","Wheaton","IL","60189-7838","N","N","N","Y","N","N","N","N","N","N","Superfund Planned Giving Prospect FY24","Superfund Planned Giving Prospect FY24","N"
"68790096","68790096","Portland","OR","97206-5764","N","N","N","Y","N","N","N","N","N","N",,,"N"
"68882919","68882919","Santa Barbara","CA","93101-4916","N","N","N","Y","N","N","N","N","N","N",,,"N"
"69633790","69633790","Alexandria","VA","22302-2105","N","N","N","Y","N","N","N","N","N","N","Superfund Planned Giving Prospect FY24","Superfund Planned Giving Prospect FY24","N"
"69668176","69668176","San Francisco","CA","94119-3809","N","N","N","Y","N","N","N","N","N","N","Superfund Planned Giving Prospect FY24","Superfund Planned Giving Prospect FY24","N"
"71296602","71296602","Seattle","WA","98109-2383","N","N","Y","N","N","Y","N","N","N","N","Superfund Planned Giving Prospect FY24","Superfund Planned Giving Prospect FY24","N"
"71322184","71322184","Broken Arrow","OK","74012-1183","N","N","Y","N","N","N","N","N","N","N",,,"N"
"71333926","71333926","Silver Spring","MD","20902-3846","N","N","N","N","Y","N","N","N","N","N","Superfund Planned Giving Prospect FY24","Superfund Planned Giving Prospect FY24","N"
"71596779","71596779","Yachats","OR","97498-9721","N","Y","N","Y","N","N","N","N","N","N",,,"N"
"72026784","72026784","Minneapolis","MN","55405-2507","N","N","Y","N","N","N","N","N","N","N","Superfund Planned Giving Prospect FY24","Superfund Planned Giving Prospect FY24","N"
"72042575","72042575","Boca Grande","FL","33921-1813","N","N","N","Y","N","N","N","N","N","N","Superfund Planned Giving Prospect FY24","Superfund Planned Giving Prospect FY24","N"
"72693179","72693179","San Antonio","TX","78212-1772","N","N","Y","N","N","Y","Y","N","N","Y","Superfund Planned Giving Prospect FY24","Superfund Planned Giving Prospect FY24","N"
"72861370","72861370","Jamaica Plain","MA","02130-0016","N","N","N","Y","N","N","N","N","N","N",,,"N"
"72927775","72927775","San Francisco","CA","94102-3251","N","N","N","Y","N","N","N","N","N","N","Superfund Planned Giving Prospect FY24","Superfund Planned Giving Prospect FY24","N"
"73529570","73529570","Castle Rock","CO","80108-8318","N","N","N","N","Y","N","N","N","N","N","Superfund Planned Giving Prospect FY24","Superfund Planned Giving Prospect FY24","N"
"73906372","73906372","Minneapolis","MN","55446-4023","N","N","N","N","N","N","N","N","N","N","Superfund Planned Giving Prospect FY24","Superfund Planned Giving Prospect FY24","N"
"74139387","74139387","Efland","NC","27243-9289","N","N","N","Y","Y","N","N","N","N","N","Superfund Planned Giving Prospect FY24","Superfund Planned Giving Prospect FY24","N"
"74250226","74250226","Pasadena","CA","91106-3910","N","N","N","N","N","Y","N","N","N","N","Superfund Planned Giving Prospect FY24","Superfund Planned Giving Prospect FY24","N"
"74294794","74294794","Exeter","NH","03833-4422","N","N","Y","N","N","N","N","N","N","N","Superfund Planned Giving Prospect FY24","Superfund Planned Giving Prospect FY24","N"
"74302787","74302787","Wilmette","IL","60091-2327","N","N","N","Y","Y","N","N","N","N","N","Superfund Planned Giving Prospect FY24","Superfund Planned Giving Prospect FY24","N"
"74564832","74564832","Delaware","OH","43015-1419","N","N","N","Y","Y","N","N","N","N","N","Superfund Planned Giving Prospect FY24","Superfund Planned Giving Prospect FY24","N"
"74626177","74626177","Chicago","IL","60631-1134","N","N","N","N","N","N","N","N","N","N","Superfund Planned Giving Prospect FY24","Superfund Planned Giving Prospect FY24","N"
"74658972","74658972","Saint Paul","MN","55101-4914","N","N","N","N","N","N","N","N","N","N","Superfund Mid to Major Prospect FY24",,"N"
"74708587","74708587","Denver","CO","80220-3043","N","N","N","Y","N","N","N","N","N","N","Superfund Planned Giving Prospect FY24","Superfund Planned Giving Prospect FY24","N"
"74797986","74797986","Saint Paul","MN","55112-5758","N","N","N","N","N","N","N","N","N","N","Superfund Planned Giving Prospect FY24","Superfund Planned Giving Prospect FY24","N"
"75196147","75196147","Palm Springs","CA","92264-5511","N","N","N","N","N","N","N","N","N","N","Superfund Mid to Major Prospect FY24",,"N"
"75296665","75296665","Milford","CT","06460-5240","N","N","Y","N","N","N","N","N","N","N",,,"N"
"75425991","75425991","Decatur","GA","30030-1037","N","N","N","N","N","N","N","N","N","N","Superfund Planned Giving Prospect FY24","Superfund Planned Giving Prospect FY24","N"
"75462580","75462580","Chicago","IL","60611-5549","N","N","N","N","N","N","N","N","N","N","Superfund Planned Giving Prospect FY24","Superfund Planned Giving Prospect FY24","N"
"75634782","75634782","La Jolla","CA","92037-4122","N","N","N","Y","N","N","N","N","N","N","Superfund Planned Giving Prospect FY24","Superfund Planned Giving Prospect FY24","N"
"75945170","75945170","Thousand Oaks","CA","91361-5093","N","N","N","Y","N","N","N","N","N","N","Superfund Planned Giving Prospect FY24","Superfund Planned Giving Prospect FY24","N"
"77202778","77202778","Somers","NY","10589-1783","N","N","Y","N","N","N","N","N","N","N","Superfund Planned Giving Prospect FY24","Superfund Planned Giving Prospect FY24","N"
"77517373","77517373","Madbury","NH","03823-7555","N","N","N","Y","N","N","N","N","N","N",,,"N"
"77735587","77735587","Boston","MA","02116-3943","N","N","N","N","N","N","N","N","N","N","Superfund Planned Giving Prospect FY24","Superfund Planned Giving Prospect FY24","N"
"77771384","77771384","Evergreen","CO","80439-7740","N","N","N","Y","N","N","N","N","N","N","Superfund Leadership Gift Prospect FY24",,"N"
"77877058","77877058","E Liverpool","OH","43920-9225","N","N","N","N","N","N","N","N","N","N","Superfund Planned Giving Prospect FY24","Superfund Planned Giving Prospect FY24","N"
"78065976","78065976","New York","NY","10023-3214","N","N","Y","N","N","N","N","N","N","N","Superfund Planned Giving Prospect FY24","Superfund Planned Giving Prospect FY24","N"
"78395811","78395811","Vero Beach","FL","32963-3084","N","N","Y","N","Y","N","N","N","N","N","Superfund Planned Giving Prospect FY24","Superfund Planned Giving Prospect FY24","N"
"78432374","78432374","Dallas","TX","76109","N","N","Y","N","Y","Y","N","N","N","Y","Superfund Planned Giving Prospect FY24","Superfund Planned Giving Prospect FY24","N"
"78537370","78537370","Minneapolis","MN","55424-1233","N","N","Y","N","N","Y","N","N","N","N","Superfund Planned Giving Prospect FY24","Superfund Planned Giving Prospect FY24","N"
"78684578","78684578","Twin Lakes","WI","53181-9810","N","N","Y","N","N","N","N","N","N","N","Superfund Mid to Major Prospect FY24",,"N"
"79540779","79540779","Ontario","OH","44903-6525","N","N","Y","N","Y","N","N","N","N","N","Superfund Mid to Major Prospect FY24",,"N"
"79836425","79836425","Saint Louis","MO","63122-1908","N","N","N","N","N","N","N","N","N","N","Superfund Planned Giving Prospect FY24","Superfund Planned Giving Prospect FY24","N"
"80427172","80427172","Weare","NH","03281-5203","N","N","N","Y","N","N","N","N","N","N","Superfund Planned Giving Prospect FY24","Superfund Planned Giving Prospect FY24","N"
"80637978","80637978","Sunapee","NH","03782-0525","N","N","N","N","Y","N","N","N","N","N","Superfund Planned Giving Prospect FY24","Superfund Planned Giving Prospect FY24","N"
"80693179","80693179","Orinda","CA","94563-3653","N","N","Y","N","N","N","N","N","N","N","Superfund Planned Giving Prospect FY24","Superfund Planned Giving Prospect FY24","N"
"80723778","80723778","Hamden","CT","06518-0794","N","N","N","Y","N","N","N","N","N","N","Superfund Mid to Major Prospect FY24",,"N"
"81279374","81279374","Wilmette","IL","60091-1235","N","N","Y","N","N","Y","N","N","N","N","Superfund Planned Giving Prospect FY24","Superfund Planned Giving Prospect FY24","N"
"81889172","81889172","Warrenville","IL","60555-3442","N","N","Y","N","Y","N","N","N","N","N",,,"N"
"82353574","82353574","Bethesda","MD","20816-2442","N","N","Y","N","N","N","N","N","N","N","Superfund Planned Giving Prospect FY24","Superfund Planned Giving Prospect FY24","N"
"82399171","82399171","Knoxville","TN","37902-1243","N","N","Y","N","N","N","N","N","N","N",,,"N"
"83772186","83772186","Asheville","NC","28803-3450","N","N","N","Y","N","N","N","N","N","N","Superfund Mid to Major Prospect FY24",,"N"
"84036797","84036797","Scottsdale","AZ","85255-1876","N","N","N","Y","N","N","N","N","N","N","Superfund Planned Giving Prospect FY24","Superfund Planned Giving Prospect FY24","N"
"84075902","84075902","Santa Fe","NM","87505-5415","N","N","N","Y","N","N","N","N","N","N","Superfund Planned Giving Prospect FY24","Superfund Planned Giving Prospect FY24","N"
"84149632","84149632","Hartland","VT","05048-9567","N","N","N","N","N","N","N","N","N","N","Superfund Planned Giving Prospect FY24","Superfund Planned Giving Prospect FY24","N"
"84153170","84153170","Bellingham","WA","98225-5310","N","N","N","Y","N","N","N","N","N","N","Superfund Planned Giving Prospect FY24","Superfund Planned Giving Prospect FY24","N"
"84305697","84305697","Waverly","PA","18471-0101","N","N","Y","N","Y","N","Y","N","N","N","Superfund Major Gift Prospect FY24",,"N"
"84308378","84308378","Columbia","MD","21044-4135","N","N","N","Y","N","N","N","N","N","N","Superfund Planned Giving Prospect FY24","Superfund Planned Giving Prospect FY24","N"
"86543576","86543576","Santa Barbara","CA","93108-2037","N","N","Y","N","N","N","N","N","N","N",,,"N"
"86559788","86559788","Mount Pleasant","SC","29464-8182","N","N","N","N","N","N","N","N","N","N","Superfund Planned Giving Prospect FY24","Superfund Planned Giving Prospect FY24","N"
"86808177","86808177","Tucson","AZ","85756-9014","N","N","Y","N","Y","N","N","N","N","N","Superfund Planned Giving Prospect FY24","Superfund Planned Giving Prospect FY24","N"
"87358370","87358370","Austin","TX","78703-2332","N","N","Y","N","N","N","N","N","N","N","Superfund Planned Giving Prospect FY24","Superfund Planned Giving Prospect FY24","N"
"87606380","87606380","Huntley","IL","60142-7731","N","N","N","N","N","N","N","N","N","N","Superfund Planned Giving Prospect FY24","Superfund Planned Giving Prospect FY24","N"
"87767208","87767208","Newton Center","MA","02459-1710","N","N","N","Y","N","N","N","N","N","N","Superfund Planned Giving Prospect FY24","Superfund Planned Giving Prospect FY24","N"
"87813374","87813374","Larkspur","CA","94939-1310","N","N","N","N","N","N","N","N","N","N","Superfund Planned Giving Prospect FY24","Superfund Planned Giving Prospect FY24","N"
"88879176","88879176","Seattle","WA","98112-3009","N","N","N","Y","N","N","N","N","N","N","Superfund Planned Giving Prospect FY24","Superfund Planned Giving Prospect FY24","N"
"88941174","88941174","Carmel","CA","93923-7726","N","N","Y","N","N","N","N","N","N","N",,,"N"
"89406789","89406789","Old Lyme","CT","06371-1638","N","N","N","N","N","N","N","N","N","N","Superfund Planned Giving Prospect FY24","Superfund Planned Giving Prospect FY24","N"
"89533376","89533376","Manhattan Bch","CA","90266-2304","N","N","N","N","N","Y","N","N","N","N",,,"N"
"89546865","89546865","Birmingham","AL","35209-5143","N","N","Y","N","N","N","N","N","N","N",,,"N"
"89805972","89805972","Denver","CO","80202-1164","N","N","Y","N","N","Y","N","N","N","N","Superfund Planned Giving Prospect FY24","Superfund Planned Giving Prospect FY24","N"
"90039876","90039876","Brooklyn","NY","11201-4502","N","N","N","N","N","N","N","N","N","N","Superfund Planned Giving Prospect FY24","Superfund Planned Giving Prospect FY24","N"
"90318866","90318866","Glencoe","IL","60022-1574","N","N","N","Y","N","N","N","N","N","N","Superfund Planned Giving Prospect FY24","Superfund Planned Giving Prospect FY24","N"
"90368465","90368465","Chicago","IL","60657-5052","N","N","N","N","N","N","N","N","N","N","Superfund Planned Giving Prospect FY24","Superfund Planned Giving Prospect FY24","N"
"90603184","90603184","Henrico","VA","23233-6988","N","N","N","Y","N","N","N","N","N","N","Superfund Mid to Major Prospect FY24",,"N"
"90882192","90882192","Rumson","NJ","07760-1022","N","N","Y","N","N","N","N","N","N","N","Superfund Planned Giving Prospect FY24","Superfund Planned Giving Prospect FY24","N"
"90971037","90971037","Washington","UT","84780-8565","N","N","Y","N","N","N","N","N","N","N","Superfund Planned Giving Prospect FY24","Superfund Planned Giving Prospect FY24","N"
"91085373","91085373","Los Altos","CA","94023-1742","N","N","Y","N","N","N","N","N","N","N","Superfund Leadership Gift Prospect FY24",,"N"
"91315036","91315036","Portland","OR","97229-8707","N","N","N","Y","Y","N","N","N","N","N","Superfund Planned Giving Prospect FY24","Superfund Planned Giving Prospect FY24","N"
"91329573","91329573","Madison","VA","22727-3317","N","N","Y","N","N","N","N","N","N","N","Superfund Planned Giving Prospect FY24","Superfund Planned Giving Prospect FY24","N"
"91438192","91438192","N Palm Beach","FL","33408-3027","N","N","N","N","N","Y","Y","N","N","N",,,"N"
"91531640","91531640","Indianapolis","IN","46202-2711","N","N","N","N","N","N","N","N","N","N","Superfund Mid to Major Prospect FY24",,"N"
"91535799","91535799","Houston","TX","77024-5071","N","N","N","Y","N","N","N","N","N","N","Superfund Planned Giving Prospect FY24","Superfund Planned Giving Prospect FY24","N"
"91556332","91556332","Maryville","TN","37802-4485","N","N","N","N","Y","N","N","N","N","N",,,"N"
"91561852","91561852","Lexington","MA","02421-8093","N","N","Y","N","N","N","N","N","N","N","Superfund Planned Giving Prospect FY24","Superfund Planned Giving Prospect FY24","N"
"91653097","91653097","Beaumont","TX","77713-8815","N","N","Y","N","N","N","N","N","N","N","Superfund Planned Giving Prospect FY24","Superfund Planned Giving Prospect FY24","N"
"91716100","91716100","Delray Beach","FL","33483-5323","N","N","N","Y","N","N","N","N","N","N",,,"N"
"91734608","91734608","Tucson","AZ","85704-7334","N","N","N","N","Y","N","N","N","N","N",,,"N"
"91738872","91738872","Lake Bluff","IL","60044-2403","N","N","Y","N","N","N","N","N","N","N",,,"N"
"91973974","91973974","Concord","MA","01742-5300","N","N","Y","N","N","N","N","N","N","Y","Superfund Planned Giving Prospect FY24","Superfund Planned Giving Prospect FY24","N"
"91990663","91990663","Lexington","KY","40503-2001","N","N","N","Y","N","N","N","N","N","N","Superfund Planned Giving Prospect FY24","Superfund Planned Giving Prospect FY24","N"
"92030600","92030600","Homestead","FL","33030-2839","N","N","N","Y","N","Y","N","N","N","N",,,"N"
"92047679","92047679","Pasadena","CA","91105-2243","N","N","N","N","N","N","N","N","N","N","Superfund Mid to Major Prospect FY24",,"N"
"92095470","92095470","Fern Bch","FL","32034-5840","N","N","N","Y","N","N","N","N","N","N","Superfund Planned Giving Prospect FY24","Superfund Planned Giving Prospect FY24","N"
"92181429","92181429","Tucson","AZ","85747-5800","N","N","Y","N","N","N","N","N","N","N","Superfund Planned Giving Prospect FY24","Superfund Planned Giving Prospect FY24","N"
"92207653","92207653","Chicago","IL","60611-3412","N","N","N","N","N","N","N","N","N","N","Superfund Planned Giving Prospect FY24","Superfund Planned Giving Prospect FY24","N"
"92210848","92210848","Newark","CA","94560-3356","N","N","N","Y","N","N","N","N","N","N",,,"N"
"92311257","92311257","Falls Church","VA","22046-3654","N","N","Y","N","N","N","N","N","N","N","Superfund Planned Giving Prospect FY24","Superfund Planned Giving Prospect FY24","N"
"92329606","92329606","Richardson","TX","75080-2521","N","N","N","Y","N","N","N","N","N","N",,,"N"
"92403492","92403492","Glendale","CA","91202-1302","N","N","N","N","Y","N","N","N","N","N","Superfund Planned Giving Prospect FY24","Superfund Planned Giving Prospect FY24","N"
"92450824","92450824","Rcho Santa Fe","CA","92067-0507","N","N","Y","N","N","N","N","N","N","N",,,"N"
"92637693","92637693","Davis","CA","95618-1637","N","N","Y","N","N","N","N","N","N","N","Superfund Mid to Major Prospect FY24",,"N"
"92643881","92643881","Wayzata","MN","55391-4515","N","N","Y","N","N","N","N","N","N","N","Superfund Planned Giving Prospect FY24","Superfund Planned Giving Prospect FY24","N"
"92654151","92654151","S San Fran","CA","94080-5202","N","N","Y","N","N","N","N","N","N","N","Superfund Planned Giving Prospect FY24","Superfund Planned Giving Prospect FY24","N"
"92658814","92658814","Annapolis","MD","21401-7727","N","N","N","N","Y","N","N","N","N","N",,,"N"
"92739325","92739325","Nashville","TN","37205-1918","N","N","Y","N","N","N","N","N","Y","N","Superfund Planned Giving Prospect FY24","Superfund Planned Giving Prospect FY24","N"
"92748029","92748029","Cincinnati","OH","45255-5629","N","N","N","N","N","N","N","N","N","N","Superfund Planned Giving Prospect FY24","Superfund Planned Giving Prospect FY24","N"
"92751403","92751403","Brooklyn","NY","11201-5519","N","N","N","Y","N","N","N","N","N","N",,,"N"
"92775238","92775238","Scottsdale","AZ","85262-3484","N","N","Y","N","N","N","N","N","N","N","Superfund Planned Giving Prospect FY24","Superfund Planned Giving Prospect FY24","N"
"92780121","92780121","Laguna Hills","CA","92653-7836","N","N","N","Y","N","N","N","N","N","N","Superfund Planned Giving Prospect FY24","Superfund Planned Giving Prospect FY24","N"
"92860121","92860121","Portola Valley","CA","94028-7444","N","N","Y","N","N","N","N","N","N","N",,,"N"
"92860139","92860139","Boston","MA","02215-3971","N","N","Y","N","N","N","N","N","N","N",,,"N"
"92917871","92917871","Mountain View","CA","94041-1209","N","N","Y","N","N","N","N","N","N","N","Superfund Planned Giving Prospect FY24","Superfund Planned Giving Prospect FY24","N"
"93372886","93372886","Lincoln","NE","68502-4009","N","N","Y","N","Y","Y","N","N","N","Y","Superfund Planned Giving Prospect FY24","Superfund Planned Giving Prospect FY24","N"
"93442648","93442648","Jacksonville","FL","32210-8301","N","N","Y","N","N","N","N","N","N","N",,,"N"
"93540557","93540557","Jenkintown","PA","19046-1007","N","N","N","Y","N","N","N","N","N","N","Superfund Planned Giving Prospect FY24","Superfund Planned Giving Prospect FY24","N"
"93546638","93546638","Durango","CO","81301-8739","N","N","Y","N","N","N","N","N","N","N","Superfund Planned Giving Prospect FY24","Superfund Planned Giving Prospect FY24","N"
"93597433","93597433","New York","NY","10128-0807","N","N","N","N","N","N","N","N","N","N","Superfund Planned Giving Prospect FY24","Superfund Planned Giving Prospect FY24","N"
"93622033","93622033","Whittier","CA","90605-1502","N","N","N","N","N","N","N","N","N","N","Superfund Major Gift Prospect FY24",,"N"
"93653244","93653244","Seattle","WA","98112-3742","N","N","N","Y","N","N","N","N","N","N",,,"N"
"93672061","93672061","Dallas","TX","75205-2902","N","N","N","N","N","N","N","N","N","N","Superfund Planned Giving Prospect FY24","Superfund Planned Giving Prospect FY24","N"
"93719169","93719169","Elmwood Park","NJ","07407-1743","N","N","N","Y","N","N","N","N","N","N","Superfund Planned Giving Prospect FY24","Superfund Planned Giving Prospect FY24","N"
"93727519","93727519","Santa Monica","CA","90402-2724","N","N","N","Y","N","N","N","N","N","N",,,"N"
"93763191","93763191","Sacramento","CA","95864-2942","N","N","N","Y","N","N","N","N","N","N","Superfund Planned Giving Prospect FY24","Superfund Planned Giving Prospect FY24","N"
"93801215","93801215","U Saddle Riv","NJ","07458-1312","N","N","N","N","Y","N","N","N","N","N",,,"N"
"93804979","93804979","Bloomington","IN","47401-5321","N","N","N","Y","N","N","N","N","N","N","Superfund Planned Giving Prospect FY24","Superfund Planned Giving Prospect FY24","N"
"93809770","93809770","Minneapolis","MN","55419-1024","N","N","Y","N","N","N","N","N","N","N",,,"N"
"93811131","93811131","Chanhassen","MN","55317-7579","N","N","N","N","N","N","N","N","N","N","Superfund Planned Giving Prospect FY24","Superfund Planned Giving Prospect FY24","N"
"93813004","93813004","Evanston","IL","60203-1824","N","N","N","N","Y","N","N","N","N","N","Superfund Planned Giving Prospect FY24","Superfund Planned Giving Prospect FY24","N"
"93820132","93820132","Cherry Hill","NJ","08034-3362","N","N","N","Y","N","N","N","N","N","N",,,"N"
"93821452","93821452","Houston","TX","77254-0165","N","N","Y","Y","N","N","N","N","N","N","Superfund Planned Giving Prospect FY24","Superfund Planned Giving Prospect FY24","N"
"93836674","93836674","Potomac","MD","20854-3885","N","N","N","Y","N","N","N","N","N","N","Superfund Planned Giving Prospect FY24","Superfund Planned Giving Prospect FY24","N"
"93946234","93946234","Haverford","PA","19041-1741","N","N","N","Y","N","N","N","N","N","N","Superfund Planned Giving Prospect FY24","Superfund Planned Giving Prospect FY24","N"
"94027570","94027570","Encino","CA","91316-2523","N","N","N","N","N","N","N","N","N","N","Superfund Mid to Major Prospect FY24",,"N"
"94278819","94278819","Greenwich","CT","06831-2626","N","N","N","Y","N","N","N","N","N","N","Superfund Planned Giving Prospect FY24","Superfund Planned Giving Prospect FY24","N"
"94347283","94347283","Portland","OR","97206-2251","N","N","N","N","N","N","N","N","N","N","Superfund Planned Giving Prospect FY24","Superfund Planned Giving Prospect FY24","N"
"94372638","94372638","Potomac","MD","20854-5602","N","N","Y","N","N","Y","N","N","N","N","Superfund Planned Giving Prospect FY24","Superfund Planned Giving Prospect FY24","N"
"94379831","94379831","San Diego","CA","92130-6819","N","N","N","Y","N","Y","N","N","N","N","Superfund Mid to Major Prospect FY24",,"N"
"94381423","94381423","Vancouver","WA","98664-4394","N","N","N","Y","N","N","N","N","N","N","Superfund Planned Giving Prospect FY24","Superfund Planned Giving Prospect FY24","N"
"94394335","94394335","Pasadena","MD","21122-5608","N","N","N","N","N","N","N","N","N","N","Superfund Planned Giving Prospect FY24","Superfund Planned Giving Prospect FY24","N"
"94413101","94413101","Santa Rosa","CA","95405-7265","N","N","N","N","N","N","N","N","N","N","Superfund Planned Giving Prospect FY24","Superfund Planned Giving Prospect FY24","N"
"94423266","94423266","Seguin","TX","78155-7411","N","N","N","N","N","N","N","N","N","N","Superfund Planned Giving Prospect FY24","Superfund Planned Giving Prospect FY24","N"
"94445525","94445525","Murrieta","CA","92562-5073","N","N","N","N","N","N","N","N","N","N","Superfund Planned Giving Prospect FY24","Superfund Planned Giving Prospect FY24","N"
"94577970","94577970","Seattle","WA","98178-2437","N","N","N","Y","N","N","N","N","N","N","Superfund Planned Giving Prospect FY24","Superfund Planned Giving Prospect FY24","N"
"94598497","94598497","Verona","WI","53593-2253","N","N","N","N","Y","N","N","N","N","N",,,"N"
"94771789","94771789","Seattle","WA","98102-4160","N","N","Y","N","N","N","N","N","N","N","Superfund Planned Giving Prospect FY24","Superfund Planned Giving Prospect FY24","N"
"94875846","94875846","Marietta","GA","30064-3963","N","N","Y","N","Y","N","N","N","N","N","Superfund Planned Giving Prospect FY24","Superfund Planned Giving Prospect FY24","N"
"95110466","95110466","Tucson","AZ","85737-7140","N","N","N","N","Y","N","N","N","N","N",,,"N"
"95328068","95328068","Charlotte","NC","28205-3636","N","N","N","Y","N","N","N","N","N","N","Superfund Planned Giving Prospect FY24","Superfund Planned Giving Prospect FY24","N"
"95395240","95395240","Fernandina Beach","FL","32034-5589","N","N","N","Y","N","N","N","N","N","N",,,"N"
"95475034","95475034","Durham","NC","27708-9985","N","N","Y","N","N","Y","Y","N","N","N","Superfund Planned Giving Prospect FY24","Superfund Planned Giving Prospect FY24","N"
"95514931","95514931","Cincinnati","OH","45249-2373","N","N","N","N","N","N","N","N","N","N","Superfund Planned Giving Prospect FY24","Superfund Planned Giving Prospect FY24","N"
"95515680","95515680","Broomfield","CO","80020-9695","N","N","N","Y","N","N","N","N","N","N",,,"N"
"95550786","95550786","Houston","TX","77069-3345","N","N","N","N","N","N","N","N","N","N","Superfund Planned Giving Prospect FY24","Superfund Planned Giving Prospect FY24","N"
"95561056","95561056","Jacksonville","FL","32226-9500","N","N","N","N","Y","N","N","N","N","N",,,"N"
"95642260","95642260","East Hampton","NY","11937-2635","N","N","Y","N","N","N","N","N","N","N",,,"N"
"95674461","95674461","Elkins Park","PA","19027-2137","N","N","N","N","N","N","N","N","N","N","Superfund Planned Giving Prospect FY24","Superfund Planned Giving Prospect FY24","N"
"95684585","95684585","Berkeley","CA","94707-2021","N","N","Y","N","Y","N","N","N","N","N","Superfund Planned Giving Prospect FY24","Superfund Planned Giving Prospect FY24","N"
"95698247","95698247","Albany","CA","94706-1562","N","N","Y","N","N","N","N","N","N","N","Superfund Planned Giving Prospect FY24","Superfund Planned Giving Prospect FY24","N"
"95719902","95719902","Hastings","MN","55033-9489","N","N","Y","N","N","N","N","N","N","N","Superfund Planned Giving Prospect FY24","Superfund Planned Giving Prospect FY24","N"
"95720124","95720124","Palo Alto","CA","94304-1324","N","N","N","N","N","N","N","N","N","N","Superfund Planned Giving Prospect FY24","Superfund Planned Giving Prospect FY24","N"
"95736096","95736096","Vineyard Hvn","MA","02568-0698","N","N","Y","N","N","N","N","N","N","N","Superfund Planned Giving Prospect FY24","Superfund Planned Giving Prospect FY24","N"
"95748943","95748943","Statesboro","GA","30458-3981","N","N","Y","N","N","N","N","N","N","N","Superfund Planned Giving Prospect FY24","Superfund Planned Giving Prospect FY24","N"
"95751285","95751285","Ellicott City","MD","21043-4977","N","N","N","Y","N","N","N","N","N","N","Superfund Planned Giving Prospect FY24","Superfund Planned Giving Prospect FY24","N"
"95752036","95752036","Chaska","MN","55318-3602","N","N","Y","N","N","N","N","N","N","N","Superfund Mid to Major Prospect FY24",,"N"
"95768438","95768438","Ann Arbor","MI","48106-3781","N","N","N","Y","N","N","N","N","N","N",,,"N"
"95856605","95856605","Doylestown","PA","18901-3224","N","N","N","N","N","N","N","N","N","N","Superfund Midlevel Annual Prospect FY24",,"N"
"95868618","95868618","Eugene","OR","97405-9662","N","N","Y","N","N","N","N","N","N","N","Superfund Planned Giving Prospect FY24","Superfund Planned Giving Prospect FY24","N"
"96069257","96069257","Holland","MI","49424-2434","N","N","N","N","N","N","N","N","N","N","Superfund Mid to Major Prospect FY24",,"N"
"96090691","96090691","Sebastopol","CA","95472-9343","N","N","Y","N","N","Y","N","N","N","N","Superfund Planned Giving Prospect FY24","Superfund Planned Giving Prospect FY24","N"
"96112974","96112974","Providence","RI","02906-1426","N","N","N","N","N","N","N","N","N","N","Superfund Planned Giving Prospect FY24","Superfund Planned Giving Prospect FY24","N"
"96197686","96197686","San Antonio","TX","78212-1771","N","N","Y","N","N","N","N","N","N","N","Superfund Planned Giving Prospect FY24","Superfund Planned Giving Prospect FY24","N"
"96258439","96258439","Wassaic","NY","12592-2525","N","N","N","N","N","N","N","N","N","N","Superfund Planned Giving Prospect FY24","Superfund Planned Giving Prospect FY24","N"
"96364146","96364146","Portland","OR","97212-3256","N","N","N","Y","N","N","N","N","N","N","Superfund Planned Giving Prospect FY24","Superfund Planned Giving Prospect FY24","N"
"96445416","96445416","Hoover","AL","35226-4913","N","N","N","N","N","N","N","N","N","N","Superfund Planned Giving Prospect FY24","Superfund Planned Giving Prospect FY24","N"
"96475835","96475835","Lantana","FL","33462-4774","N","N","N","Y","N","N","N","N","N","N","Superfund Planned Giving Prospect FY24","Superfund Planned Giving Prospect FY24","N"
"96501036","96501036","Boulder","CO","80304-2374","N","N","N","Y","N","N","N","N","N","N","Superfund Planned Giving Prospect FY24","Superfund Planned Giving Prospect FY24","N"
"96561972","96561972","San Jose","CA","95123-6310","N","N","N","N","N","N","N","N","N","N","Superfund Midlevel Annual Prospect FY24",,"N"
"96562947","96562947","Falmouth","ME","04105-1615","N","N","N","Y","N","N","N","N","N","N","Superfund Planned Giving Prospect FY24","Superfund Planned Giving Prospect FY24","N"
"96603873","96603873","New York","NY","10019-1565","N","N","N","N","Y","N","N","N","N","N",,,"N"
"96792965","96792965","Bronxville","NY","10708-4134","N","N","Y","N","N","N","N","N","N","N",,,"N"
"96927702","96927702","San Antonio","TX","78209-6344","N","N","N","Y","N","N","N","N","N","N","Superfund Planned Giving Prospect FY24","Superfund Planned Giving Prospect FY24","N"
"97004741","97004741","Long Lake","MN","55356-9667","N","N","Y","N","N","N","N","N","N","N","Superfund Planned Giving Prospect FY24","Superfund Planned Giving Prospect FY24","N"
"97013627","97013627","Chicago","IL","60611-1900","N","N","Y","N","N","N","N","N","N","N",,,"N"
"97105639","97105639","Newton Center","MA","02459-2121","N","N","Y","N","N","N","N","N","N","N",,,"N"
"97157507","97157507","Lake Forest","CA","92630-3539","N","N","N","N","N","N","N","N","N","N","Superfund Planned Giving Prospect FY24","Superfund Planned Giving Prospect FY24","N"
"97162234","97162234","Chicago","IL","60611-3931","N","N","Y","N","N","N","N","N","N","N","Superfund Planned Giving Prospect FY24","Superfund Planned Giving Prospect FY24","N"
"97228852","97228852","Carmel","CA","93923-9433","N","N","Y","N","N","N","N","N","N","N",,,"N"
"97236830","97236830","Barrington","IL","60010-9681","N","N","Y","N","N","N","N","N","N","N","Superfund Planned Giving Prospect FY24","Superfund Planned Giving Prospect FY24","N"
"97382253","97382253","Thomasville","PA","17364-9248","N","N","Y","N","N","N","N","N","N","N","Superfund Planned Giving Prospect FY24","Superfund Planned Giving Prospect FY24","N"
"97390231","97390231","Portland","OR","97221-1272","N","N","N","N","N","N","N","N","N","N","Superfund Planned Giving Prospect FY24","Superfund Planned Giving Prospect FY24","N"
"97462873","97462873","Collegedale","TN","37315-0280","N","N","Y","N","N","N","N","N","N","N","Superfund Mid to Major Prospect FY24",,"N"
"97462931","97462931","Tryon","NC","28782-3678","N","N","N","Y","N","N","N","N","N","N","Superfund Planned Giving Prospect FY24","Superfund Planned Giving Prospect FY24","N"
"97490502","97490502","Trabuco Cyn","CA","92679-1173","N","N","N","Y","N","N","N","N","N","N",,,"N"
"97502645","97502645","Wayzata","MN","55391-1881","N","N","Y","N","N","N","N","N","N","N","Superfund Planned Giving Prospect FY24","Superfund Planned Giving Prospect FY24","N"
"97575435","97575435","Tampa","FL","33647-2505","N","N","N","N","N","N","N","N","N","N","Superfund Planned Giving Prospect FY24","Superfund Planned Giving Prospect FY24","N"
"97576052","97576052","Van Wert","OH","45891-1959","N","N","N","N","Y","N","N","N","N","N",,,"N"
"97608269","97608269","Sausalito","CA","94965-1819","N","N","N","Y","N","N","N","N","N","N",,,"N"
"97634430","97634430","Northfield","IL","60093-3233","N","N","Y","N","N","N","N","N","N","N","Superfund Planned Giving Prospect FY24","Superfund Planned Giving Prospect FY24","N"
"97700504","97700504","Fairfield","CT","06824-6712","N","N","Y","N","N","N","N","N","N","N","Superfund Planned Giving Prospect FY24","Superfund Planned Giving Prospect FY24","N"
"98869597","98869597","Hockessin","DE","19707-1503","N","N","N","N","Y","N","N","N","N","N","Superfund Planned Giving Prospect FY24","Superfund Planned Giving Prospect FY24","N"
"98914286","98914286","Franklin","IN","46131-2764","N","N","Y","N","N","N","N","N","N","N","Superfund Mid to Major Prospect FY24",,"N"
"99487068","99487068","Mount Vernon","WA","98274-8429","N","N","N","Y","N","N","N","N","N","N","Superfund Major Gift Prospect FY24",,"N"
"99581431","99581431","Shreveport","LA","71106-1419","N","N","Y","N","N","N","N","N","N","N","Superfund Planned Giving Prospect FY24","Superfund Planned Giving Prospect FY24","N"
"99592834","99592834","Plymouth","MI","48170-3727","N","N","N","N","Y","N","N","N","N","N",,,"N"
"99674434","99674434","Minneapolis","MN","55422-4446","N","N","N","Y","N","N","N","N","N","N",,,"N"
"99737025","99737025","Ada","MI","49301-9680","N","N","N","N","N","N","N","N","N","N","Superfund Planned Giving Prospect FY24","Superfund Planned Giving Prospect FY24","N"
"99787889","99787889","Minneapolis","MN","55402-4400","N","N","Y","N","N","N","N","N","N","N","Superfund Planned Giving Prospect FY24","Superfund Planned Giving Prospect FY24","N"
"99790032","99790032","Woodbridge","VA","22192-5749","N","N","N","N","N","N","N","N","N","N","Superfund Planned Giving Prospect FY24","Superfund Planned Giving Prospect FY24","N"
"99799231","99799231","Midland","TX","79703-5054","N","N","N","N","N","N","N","N","Y","N",,,"N"
"99799439","99799439","Midland","TX","79703-5056","N","N","N","N","N","N","N","N","Y","N",,,"N"
"99812836","99812836","Rhinebeck","NY","12572-1841","N","N","N","N","N","N","N","N","N","N","Superfund Planned Giving Prospect FY24","Superfund Planned Giving Prospect FY24","N"
"99818635","99818635","San Jose","CA","95133-2909","N","N","Y","N","N","N","N","N","N","N",,,"N"
"99829244","99829244","Fredericksbrg","VA","22405-3533","N","N","N","N","N","N","N","N","N","N","Superfund Planned Giving Prospect FY24","Superfund Planned Giving Prospect FY24","N"
"99850943","99850943","Couderay","WI","54828-7109","N","N","N","N","N","N","N","N","N","N","Superfund Planned Giving Prospect FY24","Superfund Planned Giving Prospect FY24","N"
"99851248","99851248","Chicago","IL","60611-6448","N","N","Y","N","N","N","N","N","N","N","Superfund Planned Giving Prospect FY24","Superfund Planned Giving Prospect FY24","N"
"99854465","99854465","La Jolla","CA","92037-3166","N","N","Y","N","N","N","N","N","N","N","Superfund Planned Giving Prospect FY24","Superfund Planned Giving Prospect FY24","N"
"99979767","99979767","Colorado Spgs","CO","80906-1100","N","N","Y","N","N","N","N","N","N","N","Superfund Planned Giving Prospect FY24","Superfund Planned Giving Prospect FY24","N"
"100004534","100004534","Oceanside","CA","92056-6512","N","N","N","N","Y","N","N","N","N","N",,,"N"
"100005730","100005730","Montgomery","AL","36117-3918","N","N","N","N","Y","N","N","N","N","N",,,"N"
"100007275","100007275","Tullahoma","TN","37388-4808","N","N","Y","N","N","N","N","N","N","N","Superfund Planned Giving Prospect FY24","Superfund Planned Giving Prospect FY24","N"
"100013421","100013421","Arlington","VA","22207-2534","N","N","N","Y","Y","N","N","N","N","N","Superfund Planned Giving Prospect FY24","Superfund Planned Giving Prospect FY24","N"
"100013705","100013705","Yellow Spgs","OH","45387-1958","N","N","N","N","Y","N","N","N","N","N",,,"N"
"100017823","100017823","Rincon","GA","31326-4900","N","N","N","N","N","N","N","N","N","N","Superfund Planned Gift Only Prospect FY23",,"N"
"100022710","100022710","S Dartmouth","MA","02748-5022","N","N","Y","N","N","N","N","N","N","N","Superfund Planned Giving Prospect FY24","Superfund Planned Giving Prospect FY24","N"
"100024996","100024996","Allentown","PA","18103-6740","N","N","N","N","N","N","N","N","N","N","Superfund Planned Giving Prospect FY24","Superfund Planned Giving Prospect FY24","N"
"100041670","100041670","Odessa","FL","33556-2303","N","N","Y","N","N","N","N","N","N","N","Superfund Planned Giving Prospect FY24","Superfund Planned Giving Prospect FY24","N"
"100050998","100050998","Minneapolis","MN","55424-1126","N","N","N","Y","N","N","N","N","N","N","Superfund Planned Giving Prospect FY24","Superfund Planned Giving Prospect FY24","N"
"100051143","100051143","Tucson","AZ","85747-5811","N","N","N","N","N","N","N","N","N","N","Superfund Planned Giving Prospect FY24","Superfund Planned Giving Prospect FY24","N"
"100064240","100064240","Seattle","WA","98102-3305","N","N","Y","N","N","N","N","N","N","Y","Superfund Planned Giving Prospect FY24","Superfund Planned Giving Prospect FY24","N"
"100068631","100068631","Fargo","ND","58104-7130","N","N","N","N","N","N","N","N","N","N","Superfund Planned Giving Prospect FY24","Superfund Planned Giving Prospect FY24","N"
"100085370","100085370","Wayzata","MN","55391-9551","N","N","Y","N","N","N","N","N","N","N","Superfund Planned Giving Prospect FY24","Superfund Planned Giving Prospect FY24","N"
"100088235","100088235","Scottsdale","AZ","85258-1737","N","N","N","N","Y","N","N","N","N","N","Superfund Planned Giving Prospect FY24","Superfund Planned Giving Prospect FY24","N"
"100101204","100101204","Greenwich","CT","06830-7184","N","N","Y","N","N","Y","Y","N","N","Y","Superfund Planned Giving Prospect FY24","Superfund Planned Giving Prospect FY24","N"
"100120499","100120499","Seattle","WA","98199-3716","N","N","Y","N","N","Y","N","N","N","N","Superfund Planned Giving Prospect FY24","Superfund Planned Giving Prospect FY24","N"
"100127111","100127111","Charlottesvle","VA","22903-1996","N","N","N","N","N","N","N","N","N","N","Superfund Planned Giving Prospect FY24","Superfund Planned Giving Prospect FY24","N"
"100129776","100129776","Tucson","AZ","85742-9025","N","N","Y","N","N","Y","N","N","N","N","Superfund Planned Giving Prospect FY24","Superfund Planned Giving Prospect FY24","N"
"100131564","100131564","Old Lyme","CT","06371-3300","N","N","Y","N","N","N","N","N","N","N",,,"N"
"100135518","100135518","Minneapolis","MN","55422-4277","N","N","Y","N","N","N","N","N","N","N","Superfund Planned Giving Prospect FY24","Superfund Planned Giving Prospect FY24","N"
"100135675","100135675","Arlington","VA","22205-3221","N","N","Y","N","Y","N","N","N","N","N","Superfund Mid to Major Prospect FY24",,"N"
"100137505","100137505","Albuquerque","NM","87104-3072","N","N","N","N","N","N","N","N","N","N","Superfund Planned Giving Prospect FY24","Superfund Planned Giving Prospect FY24","N"
"100149434","100149434","Charlotte","VT","05445-9108","N","N","Y","N","N","N","N","N","N","N","Superfund Planned Giving Prospect FY24","Superfund Planned Giving Prospect FY24","N"
"100153248","100153248","Winnetka","IL","60093-2511","N","N","Y","N","N","N","N","N","N","N","Superfund Planned Giving Prospect FY24","Superfund Planned Giving Prospect FY24","N"
"100153982","100153982","Paradise Vly","AZ","85253-4032","N","N","N","Y","N","N","N","N","N","N",,,"N"
"100160171","100160171","Lexington","KY","40502-1166","N","N","Y","N","N","N","N","N","N","N",,,"N"
"100173183","100173183","New Braunfels","TX","78132-2830","N","N","Y","N","N","N","N","N","N","N",,,"N"
"100214585","100214585","Windsor","CA","95492-7745","N","N","N","Y","N","N","N","N","N","N",,,"N"
"100219255","100219255","Saratoga","CA","95070-5504","N","N","Y","N","N","N","N","N","N","N","Superfund Planned Giving Prospect FY24","Superfund Planned Giving Prospect FY24","N"
"100229337","100229337","Brooklyn","NY","11201-6302","N","N","Y","N","N","N","N","N","N","N",,,"N"
"100229966","100229966","Panama City","FL","32405-4489","N","N","N","N","N","N","N","N","N","N","Superfund Planned Giving Prospect FY24","Superfund Planned Giving Prospect FY24","N"
"100237449","100237449","Ft Lauderdale","FL","33316-2305","N","N","Y","N","N","N","N","N","N","N",,,"N"
"100291172","100291172","Nashville","TN","37212-5404","N","N","N","N","N","N","N","N","N","N","Superfund Planned Giving Prospect FY24","Superfund Planned Giving Prospect FY24","N"
"100294022","100294022","Ketchum","ID","83340-3201","N","N","Y","N","N","N","N","N","N","N","Superfund Planned Giving Prospect FY24","Superfund Planned Giving Prospect FY24","N"
"100294028","100294028","New York","NY","10075-0236","N","N","Y","N","N","N","N","N","N","Y","Superfund Planned Giving Prospect FY24","Superfund Planned Giving Prospect FY24","N"
"100299031","100299031","Black Mtn","NC","28711-0379","N","N","N","N","N","N","N","N","N","N","Superfund Planned Giving Prospect FY24","Superfund Planned Giving Prospect FY24","N"
"100307387","100307387","Bethesda","MD","20817-5840","N","N","Y","N","N","N","N","N","N","N","Superfund Planned Giving Prospect FY24","Superfund Planned Giving Prospect FY24","N"
"100308418","100308418","Greenwich","CT","06830-4830","N","N","Y","N","N","N","N","N","N","N",,,"N"
"100314125","100314125","Portland","ME","04103-2831","N","N","N","N","Y","N","N","N","N","N",,,"N"
"100316173","100316173","Seattle","WA","98105-4183","N","N","N","Y","N","N","N","N","N","N",,,"N"
"100319784","100319784","San Francisco","CA","94121-2536","N","N","N","Y","N","N","N","N","N","N","Superfund Planned Giving Prospect FY24","Superfund Planned Giving Prospect FY24","N"
"100322435","100322435","Bozeman","MT","59715-5983","N","N","N","N","N","N","N","N","N","N","Superfund Planned Giving Prospect FY24","Superfund Planned Giving Prospect FY24","N"
"100329938","100329938","Jacksonville","FL","32203-3247","N","N","N","N","N","N","N","N","N","N","Superfund Mid to Major Prospect FY24",,"N"
"100330060","100330060","Austin","TX","78731-1426","N","N","N","N","N","N","N","N","N","N","Superfund Mid to Major Prospect FY24",,"N"
"100332729","100332729","Crystal Lake","IL","60014-6568","N","N","N","N","N","N","N","N","N","N","Superfund Planned Giving Prospect FY24","Superfund Planned Giving Prospect FY24","N"
"100333275","100333275","Laguna Beach","CA","92652-0336","N","N","N","N","N","N","N","N","N","N","Superfund Planned Giving Prospect FY24","Superfund Planned Giving Prospect FY24","N"
"100333517","100333517","Burien","WA","98166-3131","N","N","N","Y","N","N","N","N","N","N","Superfund Planned Giving Prospect FY24","Superfund Planned Giving Prospect FY24","N"
"100334417","100334417","Atlanta","GA","30319-1360","N","N","N","N","Y","N","N","N","N","N","Superfund Planned Giving Prospect FY24","Superfund Planned Giving Prospect FY24","N"
"100334458","100334458","Boxford","MA","01921-2103","N","N","Y","N","N","N","N","N","N","N","Superfund Planned Giving Prospect FY24","Superfund Planned Giving Prospect FY24","N"
"100334822","100334822","Towson","MD","21286-1337","N","N","N","N","N","N","N","N","N","N","Superfund Planned Giving Prospect FY24","Superfund Planned Giving Prospect FY24","N"
"100334940","100334940","Lafayette","CA","94549-6265","N","N","N","Y","N","N","N","N","N","N","Superfund Planned Giving Prospect FY24","Superfund Planned Giving Prospect FY24","N"
"100342926","100342926","Naples","FL","34109-3401","N","N","N","N","Y","N","N","N","N","N","Superfund Midlevel Annual Prospect FY24",,"N"
"100345665","100345665","Grass Valley","CA","95949-8004","N","N","Y","N","N","N","N","N","N","N",,,"N"
"100352097","100352097","Minneapolis","MN","55438-5500","N","N","N","Y","N","N","N","N","N","N","Superfund Planned Giving Prospect FY24","Superfund Planned Giving Prospect FY24","N"
"100356948","100356948","Hadlyme","CT","06439-0099","N","N","N","N","N","N","N","N","N","N","Superfund Planned Giving Prospect FY24","Superfund Planned Giving Prospect FY24","N"
"100362959","100362959","Asheville","NC","28803-3049","N","N","N","N","N","N","N","N","N","N","Superfund Planned Giving Prospect FY24","Superfund Planned Giving Prospect FY24","N"
"100365228","100365228","Tolar","TX","76476-5658","N","N","Y","N","N","N","N","N","N","N","Superfund Planned Giving Prospect FY24","Superfund Planned Giving Prospect FY24","N"
"100372532","100372532","Washington","MO","63090-7112","N","N","N","N","N","N","N","N","N","N","Superfund Mid to Major Prospect FY24",,"N"
"100381680","100381680","Seattle","WA","98115-6131","N","N","Y","N","Y","N","N","N","N","N","Superfund Planned Giving Prospect FY24","Superfund Planned Giving Prospect FY24","N"
"100405628","100405628","Chicago","IL","60640-1682","N","N","N","N","N","N","N","N","N","N","Superfund Planned Giving Prospect FY24","Superfund Planned Giving Prospect FY24","N"
"100437772","100437772","Milwaukie","OR","97267-2528","N","N","N","Y","N","N","N","N","N","N","Superfund Planned Giving Prospect FY24","Superfund Planned Giving Prospect FY24","N"
"100441436","100441436","Longmont","CO","80501-4844","N","N","Y","N","N","N","N","N","N","N","Superfund Planned Giving Prospect FY24","Superfund Planned Giving Prospect FY24","N"
"100441442","100441442","New Caney","TX","77357-4709","N","N","N","N","N","N","N","N","N","N","Superfund Planned Giving Prospect FY24","Superfund Planned Giving Prospect FY24","N"
"100444452","100444452","San Diego","CA","92101-7087","N","N","N","N","N","N","N","N","N","N","Superfund Planned Giving Prospect FY24","Superfund Planned Giving Prospect FY24","N"
"100460846","100460846","East Lansing","MI","48823-4618","N","N","N","N","N","N","N","N","N","N","Superfund Midlevel Annual Prospect FY24",,"N"
"100552357","100552357","Issaquah","WA","98027-8890","N","N","N","Y","N","N","N","N","N","N",,,"N"
"100563471","100563471","Fort Collins","CO","80524-3120","N","N","Y","N","N","N","N","N","N","N",,,"N"
"100565086","100565086","Mechanicsvlle","VA","23111-7025","N","N","Y","N","N","N","N","N","N","N",,,"N"
"100568541","100568541","Seattle","WA","98118-1812","N","N","N","Y","N","N","N","N","N","N","Superfund Planned Giving Prospect FY24","Superfund Planned Giving Prospect FY24","N"
"100569499","100569499","Darien","CT","06820-6208","N","N","Y","N","N","N","N","N","N","N","Superfund Planned Giving Prospect FY24","Superfund Planned Giving Prospect FY24","N"
"100571770","100571770","West Palm Bch","FL","33407-1973","N","N","N","N","N","N","N","N","N","N","Superfund Midlevel Annual Prospect FY24",,"N"
"100573845","100573845","Seattle","WA","98112-2927","N","N","N","Y","N","N","N","N","N","N","Superfund Planned Giving Prospect FY24","Superfund Planned Giving Prospect FY24","N"
"100580221","100580221","Miami","FL","33133-4054","N","N","Y","N","N","N","N","N","N","N","Superfund Planned Giving Prospect FY24","Superfund Planned Giving Prospect FY24","N"
"100581769","100581769","Winslow","AZ","86047-7171","N","N","N","N","N","N","N","N","N","N","Superfund Planned Giving Prospect FY24","Superfund Planned Giving Prospect FY24","N"
"100589613","100589613","Durango","CO","81302-2607","N","N","N","N","Y","N","N","N","N","N",,,"N"
"100591954","100591954","New York","NY","10065-7369","N","N","N","N","N","N","N","N","N","N","Superfund Planned Giving Prospect FY24","Superfund Planned Giving Prospect FY24","N"
"100600842","100600842","Syracuse","NY","13214-2189","N","N","N","N","Y","N","N","N","N","N",,,"N"
"100601365","100601365","Rochester","MN","55906-7083","N","N","N","N","N","N","N","N","N","N","Superfund Mid to Major Prospect FY24",,"N"
"100640512","100640512","Grosse Pointe Woods","MI","48236-2741","N","N","N","N","N","N","N","N","N","N","Superfund Planned Giving Prospect FY24","Superfund Planned Giving Prospect FY24","N"
"100642254","100642254","Hillsborough","NJ","08844-1303","N","N","N","N","N","N","N","N","N","N","Superfund Planned Giving Prospect FY24","Superfund Planned Giving Prospect FY24","N"
"100646800","100646800","Baltimore","MD","21210-2745","N","N","N","Y","N","N","N","N","N","N","Superfund Planned Giving Prospect FY24","Superfund Planned Giving Prospect FY24","N"
"100656515","100656515","San Rafael","CA","94901-3415","N","N","Y","N","N","N","N","N","N","N",,,"N"
"100660690","100660690","Ellicott City","MD","21042-1432","N","N","N","N","N","N","N","N","N","N","Superfund Planned Giving Prospect FY24","Superfund Planned Giving Prospect FY24","N"
"100664585","100664585","Eugene","OR","97401-2213","N","N","N","Y","N","N","N","N","N","N","Superfund Planned Giving Prospect FY24","Superfund Planned Giving Prospect FY24","N"
"100669018","100669018","Wolverine Lk","MI","48390-2016","N","N","N","N","N","N","N","N","N","N","Superfund Planned Giving Prospect FY24","Superfund Planned Giving Prospect FY24","N"
"100744355","100744355","Lafayette","CA","94549-2631","N","N","N","Y","N","N","N","N","N","N","Superfund Planned Giving Prospect FY24","Superfund Planned Giving Prospect FY24","N"
"100774320","100774320","Palo Alto","CA","94301-3611","N","N","Y","N","N","N","N","N","Y","Y","Superfund Planned Giving Prospect FY24","Superfund Planned Giving Prospect FY24","N"
"100781423","100781423","Park City","UT","84098-4660","N","N","N","N","N","N","N","N","N","N","Superfund Midlevel Annual Prospect FY24",,"N"
"100784206","100784206","Minneapolis","MN","55447-3499","N","N","N","N","N","N","N","N","N","N","Superfund Planned Giving Prospect FY24","Superfund Planned Giving Prospect FY24","N"
"100790387","100790387","Portland","OR","97210-2823","N","N","N","N","N","N","N","N","N","N","Superfund Planned Giving Prospect FY24","Superfund Planned Giving Prospect FY24","N"
"100792804","100792804","Denver","CO","80230-6535","N","N","N","N","N","N","N","N","N","N","Superfund Planned Giving Prospect FY24","Superfund Planned Giving Prospect FY24","N"
"100794289","100794289","Penhook","VA","24137-5265","N","N","N","N","N","N","N","N","N","N","Superfund Planned Giving Prospect FY24","Superfund Planned Giving Prospect FY24","N"
"100796307","100796307","Manhattan Bch","CA","90266-4939","N","N","Y","N","N","N","N","N","N","N","Superfund Planned Giving Prospect FY24","Superfund Planned Giving Prospect FY24","N"
"100805747","100805747","Bethesda","MD","20816-2930","N","N","N","N","N","N","N","N","N","N","Superfund Planned Giving Prospect FY24","Superfund Planned Giving Prospect FY24","N"
"100809242","100809242","El Cerrito","CA","94530-3208","N","N","N","Y","N","N","N","N","N","N","Superfund Midlevel Annual Prospect FY24",,"N"
"100813357","100813357","Tulsa","OK","74112-4305","N","N","N","N","N","N","N","N","N","N","Superfund Planned Giving Prospect FY24","Superfund Planned Giving Prospect FY24","N"
"100817059","100817059","Wayzata","MN","55391-1547","N","N","Y","N","N","N","N","N","N","N","Superfund Midlevel Annual Prospect FY24",,"N"
"100818392","100818392","Aspen","CO","81611-2553","N","N","Y","N","N","N","N","N","N","N","Superfund Planned Giving Prospect FY24","Superfund Planned Giving Prospect FY24","N"
"100824933","100824933","Perrysburg","OH","43551-9408","N","N","N","N","N","N","N","N","N","N","Superfund Mid to Major Prospect FY24",,"N"
"100835903","100835903","Kailua Kona","HI","96740-2812","N","N","N","N","N","N","N","N","N","N","Superfund Planned Giving Prospect FY24","Superfund Planned Giving Prospect FY24","N"
"100960599","100960599","Martindale","TX","78655-2556","N","N","N","N","N","N","N","N","N","N","Superfund Midlevel Annual Prospect FY24",,"N"
"100962639","100962639","Landenberg","PA","19350-9102","N","N","N","N","N","N","N","N","N","N","Superfund Planned Giving Prospect FY24","Superfund Planned Giving Prospect FY24","N"
"100963396","100963396","Cincinnati","OH","45208-1612","N","N","Y","N","N","N","N","N","N","N","Superfund Major Gift Prospect FY24",,"N"
"100963494","100963494","Montrose","CO","81403-7995","N","N","N","N","N","N","N","N","N","N","Superfund Midlevel Annual Prospect FY24",,"N"
"100983940","100983940","Austin","TX","78746-5547","N","N","N","N","N","N","N","N","N","N","Superfund Planned Giving Prospect FY24","Superfund Planned Giving Prospect FY24","N"
"100989458","100989458","New York","NY","10075-0347","N","N","Y","N","N","N","N","N","N","N","Superfund Major Gift Prospect FY24",,"N"
"101008162","101008162","Tappan","NY","10983-1605","N","N","N","N","N","N","N","N","N","N","Superfund Midlevel Annual Prospect FY24",,"N"
"101016340","101016340","Catonsville","MD","21228-5024","N","N","N","N","N","N","N","N","N","N","Superfund Planned Giving Prospect FY24","Superfund Planned Giving Prospect FY24","N"
"101036229","101036229","Moraga","CA","94556-2323","N","N","N","N","N","N","N","N","N","N","Superfund Planned Giving Prospect FY24","Superfund Planned Giving Prospect FY24","N"
"101045597","101045597","Chardon","OH","44024-0800","N","N","N","N","N","N","N","N","N","N","Superfund Planned Giving Prospect FY24","Superfund Planned Giving Prospect FY24","N"
"101052280","101052280","Naperville","IL","60540-7524","N","N","N","N","N","N","N","N","N","N","Superfund Midlevel Annual Prospect FY24",,"N"
"101061321","101061321","Seattle","WA","98199-2854","N","N","N","Y","N","N","N","N","N","N","Superfund Mid to Major Prospect FY24",,"N"
"101061335","101061335","Birmingham","AL","35253-0231","N","N","Y","N","N","N","N","N","N","N","Superfund Midlevel Annual Prospect FY24",,"N"
"101071019","101071019","Jericho","NY","11753-1057","N","N","N","N","N","N","N","N","N","N","Superfund Midlevel Annual Prospect FY24",,"N"
"101071160","101071160","Charlotte","NC","28209-2545","N","N","N","N","N","N","N","N","N","N","Superfund Midlevel Annual Prospect FY24",,"N"
"101071759","101071759","Avon","IN","46123-8982","N","N","Y","N","N","N","N","N","N","N","Superfund Midlevel Annual Prospect FY24",,"N"
"101073595","101073595","Queenstown","MD","21658-1648","N","N","N","N","N","N","N","N","N","N","Superfund Midlevel Annual Prospect FY24",,"N"
"101074007","101074007","San Francisco","CA","94123-3824","N","N","N","N","N","N","N","N","N","N","Superfund Leadership Gift Prospect FY24",,"N"
"101074420","101074420","Alexandria","VA","22302-2910","N","N","Y","N","N","N","N","N","N","N","Superfund Midlevel Annual Prospect FY24",,"N"
"101075688","101075688","Durango","CO","81301-3104","N","N","N","N","N","N","N","N","N","N","Superfund Midlevel Annual Prospect FY24",,"N"
"101076195","101076195","Monterey","CA","93940-6741","N","N","N","N","N","N","N","N","N","N","Superfund Midlevel Annual Prospect FY24",,"N"
"101076709","101076709","Round Rock","TX","78681-2379","N","N","N","N","N","N","N","N","N","N","Superfund Midlevel Annual Prospect FY24",,"N"
"101078683","101078683","Fayetteville","AR","72703-3067","N","N","N","N","N","N","N","N","N","N","Superfund Midlevel Annual Prospect FY24",,"N"
"101079689","101079689","Boca Raton","FL","33432-5725","N","N","N","N","N","N","N","N","N","N","Superfund Midlevel Annual Prospect FY24",,"N"
"101080314","101080314","Punta Gorda","FL","33983-5240","N","N","N","N","N","N","N","N","N","N","Superfund Midlevel Annual Prospect FY24",,"N"
"101083918","101083918","Camas","WA","98607-2582","N","N","N","N","N","N","N","N","N","N","Superfund Mid to Major Prospect FY24",,"N"
"101086700","101086700","Santa Clarita","CA","91350-2129","N","N","Y","N","N","N","N","N","N","N","Superfund Mid to Major Prospect FY24",,"N"
"101091382","101091382","Flagstaff","AZ","86004-1101","N","N","N","N","N","N","N","N","N","N","Superfund Midlevel Annual Prospect FY24",,"N"
"101094793","101094793","Brentwood","TN","37027-4117","N","N","N","N","N","N","N","N","N","N","Superfund Planned Giving Prospect FY24","Superfund Planned Giving Prospect FY24","N"
"101097597","101097597","Fulton","MD","20759-2648","N","N","N","N","N","N","N","N","N","N","Superfund Midlevel Annual Prospect FY24",,"N"
"101113724","101113724","Santa Barbara","CA","93105-2364","N","N","N","N","N","N","N","N","N","N","Superfund Leadership Gift Prospect FY24",,"N"
"101141455","101141455","Phoenix","AZ","85064-4265","N","N","N","Y","N","N","N","N","N","N","Superfund Planned Giving Prospect FY24","Superfund Planned Giving Prospect FY24","N"
"101177079","101177079","Trumbull","CT","06611-3310","N","N","N","N","N","N","N","N","N","N","Superfund Planned Giving Prospect FY24","Superfund Planned Giving Prospect FY24","N"
"101179182","101179182","New York","NY","10010-5107","N","N","N","N","N","N","N","N","N","N","Superfund Planned Giving Prospect FY24","Superfund Planned Giving Prospect FY24","N"
"101187439","101187439","Madison","WI","53705-4739","N","N","Y","N","N","N","N","N","N","N",,,"N"
"101235726","101235726","San Francisco","CA","94108-4214","N","N","N","Y","N","N","N","N","N","N","Superfund Planned Giving Prospect FY24","Superfund Planned Giving Prospect FY24","N"
"101253394","101253394","Las Vegas","NV","89134-6299","N","N","N","N","N","N","N","N","N","N","Superfund Planned Giving Prospect FY24","Superfund Planned Giving Prospect FY24","N"
"101288406","101288406","Quincy","IL","62301-3149","N","N","Y","N","N","N","N","N","N","N",,,"N"
"101288468","101288468","Haddonfield","NJ","08033-3604","N","N","Y","N","N","N","N","N","N","N",,,"N"
"101294932","101294932","W Hollywood","CA","90046-6648","N","N","Y","N","N","N","N","N","N","N",,,"N"
"101296270","101296270","Simi Valley","CA","93062-0419","N","N","N","Y","N","N","N","N","N","N",,,"N"
"101325759","101325759","Doylestown","PA","18901-5523","N","N","N","Y","Y","N","N","N","N","N","Superfund Planned Giving Prospect FY24","Superfund Planned Giving Prospect FY24","N"
